{"type":"FeatureCollection","name":"Глубины ВВП 2023 — устье Волхова","description":"300 отметок глубин, прочитанных вручную со схемы ФБУ «Администрация «Волго-Балт» «Район установки орудий лова ладожской корюшки в устье р. Волхов» (путина 2025; фон — государственная ЭНК ВВП «Река Волхов, Волховский бар», изд. 2023). Глубины от проектного уровня ВВП (ПУ ≈ 4,0 м БС), то есть на ~1,1 м меньше, чем при среднем многолетнем уровне, от которого считает модель сайта: depth_mean_level_m = depth_m + 1,1. В конце сентября 2026 г. уровень на 0,3–0,4 м ниже ПУ (консультация Волго-Балта): фактическая глубина ≈ depth_m − 0,35. Проверка: привязка по вершинам (ГСК-2011) и по сетке ЭНК — ошибка ≤ 2 м; выборочная перепроверка 98 чисел — 0 ошибок. Не для судовождения.","attribution":"Отметки глубин прочитаны со схемы ФБУ «Администрация «Волго-Балт» (volgo-balt.ru, «Районы установки орудий лова», 2025); источник — ЭНК ВВП «Река Волхов, Волховский бар», изд. 2023. Не для навигации.","fields":{"d":"глубина от проектного уровня ВВП (ПУ ≈ 4,0 м БС), м","m":"та же глубина при среднем многолетнем уровне (нуль карт ГУНиО и модели сайта), м","k":"sounding | fairway | obstruction","z":"lake | channel | bar_flank | mouth"},"level_offsets":{"to_mean_level_m":1.1,"to_2026_09_late_m":-0.35,"note":"ПУ 4,00 м БС; средний многолетний уровень 5,1 м БС (карты ГУНиО); ожидаемо 21–30.09.2026: Сясьские Рядки 3,70 м БС, участок Ст. Ладога – устье: глубина 310 см при гарантированной 350 см"},"review":"research/fresh_depth.md","features":[{"type":"Feature","geometry":{"type":"Point","coordinates":[32.322641,60.159332]},"properties":{"d":4.6,"m":5.7,"k":"sounding","z":"lake"}},{"type":"Feature","geometry":{"type":"Point","coordinates":[32.323187,60.160345]},"properties":{"d":4.6,"m":5.7,"k":"sounding","z":"lake"}},{"type":"Feature","geometry":{"type":"Point","coordinates":[32.335769,60.159373]},"properties":{"d":4.6,"m":5.7,"k":"sounding","z":"lake"}},{"type":"Feature","geometry":{"type":"Point","coordinates":[32.336354,60.16038]},"properties":{"d":4.8,"m":5.9,"k":"sounding","z":"lake"}},{"type":"Feature","geometry":{"type":"Point","coordinates":[32.339782,60.159842]},"properties":{"d":4.8,"m":5.9,"k":"sounding","z":"lake"}},{"type":"Feature","geometry":{"type":"Point","coordinates":[32.34222,60.160539]},"properties":{"d":4.6,"m":5.7,"k":"sounding","z":"channel"}},{"type":"Feature","geometry":{"type":"Point","coordinates":[32.343502,60.1594]},"properties":{"d":4.6,"m":5.7,"k":"sounding","z":"channel"}},{"type":"Feature","geometry":{"type":"Point","coordinates":[32.349888,60.159964]},"properties":{"d":4.6,"m":5.7,"k":"sounding","z":"channel"}},{"type":"Feature","geometry":{"type":"Point","coordinates":[32.351933,60.159351]},"properties":{"d":4.8,"m":5.9,"k":"sounding","z":"lake"}},{"type":"Feature","geometry":{"type":"Point","coordinates":[32.352872,60.160402]},"properties":{"d":4.8,"m":5.9,"k":"sounding","z":"lake"}},{"type":"Feature","geometry":{"type":"Point","coordinates":[32.353926,60.159617]},"properties":{"d":4.4,"m":5.5,"k":"sounding","z":"lake"}},{"type":"Feature","geometry":{"type":"Point","coordinates":[32.357761,60.160232]},"properties":{"d":5.4,"m":6.5,"k":"sounding","z":"lake"}},{"type":"Feature","geometry":{"type":"Point","coordinates":[32.321828,60.157426]},"properties":{"d":4.4,"m":5.5,"k":"sounding","z":"lake"}},{"type":"Feature","geometry":{"type":"Point","coordinates":[32.32683,60.15818]},"properties":{"d":4.4,"m":5.5,"k":"sounding","z":"lake"}},{"type":"Feature","geometry":{"type":"Point","coordinates":[32.327326,60.159092]},"properties":{"d":4.4,"m":5.5,"k":"sounding","z":"lake"}},{"type":"Feature","geometry":{"type":"Point","coordinates":[32.329801,60.157389]},"properties":{"d":4.0,"m":5.1,"k":"sounding","z":"lake"}},{"type":"Feature","geometry":{"type":"Point","coordinates":[32.330297,60.158434]},"properties":{"d":4.2,"m":5.3,"k":"sounding","z":"lake"}},{"type":"Feature","geometry":{"type":"Point","coordinates":[32.334855,60.157321]},"properties":{"d":4.4,"m":5.5,"k":"sounding","z":"lake"}},{"type":"Feature","geometry":{"type":"Point","coordinates":[32.33549,60.158429]},"properties":{"d":4.4,"m":5.5,"k":"sounding","z":"lake"}},{"type":"Feature","geometry":{"type":"Point","coordinates":[32.339413,60.157556]},"properties":{"d":4.6,"m":5.7,"k":"sounding","z":"lake"}},{"type":"Feature","geometry":{"type":"Point","coordinates":[32.339693,60.158842]},"properties":{"d":4.1,"m":5.2,"k":"sounding","z":"lake"}},{"type":"Feature","geometry":{"type":"Point","coordinates":[32.34161,60.158734]},"properties":{"d":4.6,"m":5.7,"k":"sounding","z":"channel"}},{"type":"Feature","geometry":{"type":"Point","coordinates":[32.343425,60.15712]},"properties":{"d":4.8,"m":5.9,"k":"sounding","z":"channel"}},{"type":"Feature","geometry":{"type":"Point","coordinates":[32.343514,60.158437]},"properties":{"d":4.0,"m":5.1,"k":"sounding","z":"channel"}},{"type":"Feature","geometry":{"type":"Point","coordinates":[32.345431,60.157779]},"properties":{"d":4.7,"m":5.8,"k":"fairway","z":"channel"}},{"type":"Feature","geometry":{"type":"Point","coordinates":[32.345749,60.158874]},"properties":{"d":5.2,"m":6.3,"k":"fairway","z":"channel"}},{"type":"Feature","geometry":{"type":"Point","coordinates":[32.346612,60.15733]},"properties":{"d":4.8,"m":5.9,"k":"sounding","z":"channel"}},{"type":"Feature","geometry":{"type":"Point","coordinates":[32.347577,60.159191]},"properties":{"d":5.4,"m":6.5,"k":"sounding","z":"channel"}},{"type":"Feature","geometry":{"type":"Point","coordinates":[32.34839,60.157887]},"properties":{"d":4.8,"m":5.9,"k":"sounding","z":"channel"}},{"type":"Feature","geometry":{"type":"Point","coordinates":[32.351488,60.157476]},"properties":{"d":4.6,"m":5.7,"k":"sounding","z":"lake"}},{"type":"Feature","geometry":{"type":"Point","coordinates":[32.354408,60.157091]},"properties":{"d":4.6,"m":5.7,"k":"sounding","z":"lake"}},{"type":"Feature","geometry":{"type":"Point","coordinates":[32.355424,60.158895]},"properties":{"d":4.0,"m":5.1,"k":"sounding","z":"lake"}},{"type":"Feature","geometry":{"type":"Point","coordinates":[32.357303,60.156863]},"properties":{"d":4.0,"m":5.1,"k":"sounding","z":"lake"}},{"type":"Feature","geometry":{"type":"Point","coordinates":[32.358065,60.158985]},"properties":{"d":4.2,"m":5.3,"k":"sounding","z":"lake"}},{"type":"Feature","geometry":{"type":"Point","coordinates":[32.320342,60.154582]},"properties":{"d":4.2,"m":5.3,"k":"sounding","z":"lake"}},{"type":"Feature","geometry":{"type":"Point","coordinates":[32.320786,60.155532]},"properties":{"d":4.4,"m":5.5,"k":"sounding","z":"lake"}},{"type":"Feature","geometry":{"type":"Point","coordinates":[32.321282,60.156457]},"properties":{"d":4.4,"m":5.5,"k":"sounding","z":"lake"}},{"type":"Feature","geometry":{"type":"Point","coordinates":[32.324773,60.154419]},"properties":{"d":4.9,"m":6.0,"k":"sounding","z":"lake"}},{"type":"Feature","geometry":{"type":"Point","coordinates":[32.325802,60.15628]},"properties":{"d":4.2,"m":5.3,"k":"sounding","z":"lake"}},{"type":"Feature","geometry":{"type":"Point","coordinates":[32.328633,60.155445]},"properties":{"d":3.6,"m":4.7,"k":"sounding","z":"lake"}},{"type":"Feature","geometry":{"type":"Point","coordinates":[32.329192,60.15642]},"properties":{"d":3.8,"m":4.9,"k":"sounding","z":"lake"}},{"type":"Feature","geometry":{"type":"Point","coordinates":[32.333813,60.155142]},"properties":{"d":3.8,"m":4.9,"k":"sounding","z":"lake"}},{"type":"Feature","geometry":{"type":"Point","coordinates":[32.334321,60.156257]},"properties":{"d":2.4,"m":3.5,"k":"sounding","z":"lake"}},{"type":"Feature","geometry":{"type":"Point","coordinates":[32.337737,60.154561]},"properties":{"d":3.4,"m":4.5,"k":"sounding","z":"lake"}},{"type":"Feature","geometry":{"type":"Point","coordinates":[32.33808,60.155624]},"properties":{"d":3.8,"m":4.9,"k":"sounding","z":"lake"}},{"type":"Feature","geometry":{"type":"Point","coordinates":[32.339451,60.156644]},"properties":{"d":4.0,"m":5.1,"k":"sounding","z":"lake"}},{"type":"Feature","geometry":{"type":"Point","coordinates":[32.340606,60.154453]},"properties":{"d":4.5,"m":5.6,"k":"sounding","z":"channel"}},{"type":"Feature","geometry":{"type":"Point","coordinates":[32.342473,60.155087]},"properties":{"d":4.3,"m":5.4,"k":"sounding","z":"channel"}},{"type":"Feature","geometry":{"type":"Point","coordinates":[32.342587,60.156202]},"properties":{"d":4.4,"m":5.5,"k":"sounding","z":"channel"}},{"type":"Feature","geometry":{"type":"Point","coordinates":[32.343831,60.154562]},"properties":{"d":4.1,"m":5.2,"k":"fairway","z":"channel"}},{"type":"Feature","geometry":{"type":"Point","coordinates":[32.344365,60.155676]},"properties":{"d":4.5,"m":5.6,"k":"fairway","z":"channel"}},{"type":"Feature","geometry":{"type":"Point","coordinates":[32.344936,60.156747]},"properties":{"d":4.5,"m":5.6,"k":"fairway","z":"channel"}},{"type":"Feature","geometry":{"type":"Point","coordinates":[32.345875,60.154638]},"properties":{"d":4.0,"m":5.1,"k":"sounding","z":"channel"}},{"type":"Feature","geometry":{"type":"Point","coordinates":[32.346841,60.155753]},"properties":{"d":3.6,"m":4.7,"k":"sounding","z":"channel"}},{"type":"Feature","geometry":{"type":"Point","coordinates":[32.34938,60.156349]},"properties":{"d":4.2,"m":5.3,"k":"sounding","z":"lake"}},{"type":"Feature","geometry":{"type":"Point","coordinates":[32.349532,60.155386]},"properties":{"d":3.8,"m":4.9,"k":"sounding","z":"lake"}},{"type":"Feature","geometry":{"type":"Point","coordinates":[32.354662,60.155811]},"properties":{"d":4.0,"m":5.1,"k":"sounding","z":"lake"}},{"type":"Feature","geometry":{"type":"Point","coordinates":[32.358319,60.156173]},"properties":{"d":3.8,"m":4.9,"k":"sounding","z":"lake"}},{"type":"Feature","geometry":{"type":"Point","coordinates":[32.323694,60.152639]},"properties":{"d":3.6,"m":4.7,"k":"sounding","z":"lake"}},{"type":"Feature","geometry":{"type":"Point","coordinates":[32.327198,60.152532]},"properties":{"d":3.8,"m":4.9,"k":"sounding","z":"lake"}},{"type":"Feature","geometry":{"type":"Point","coordinates":[32.336416,60.153832]},"properties":{"d":3.4,"m":4.5,"k":"sounding","z":"lake"}},{"type":"Feature","geometry":{"type":"Point","coordinates":[32.337546,60.153307]},"properties":{"d":4.2,"m":5.3,"k":"sounding","z":"lake"}},{"type":"Feature","geometry":{"type":"Point","coordinates":[32.339654,60.152826]},"properties":{"d":4.5,"m":5.6,"k":"sounding","z":"channel"}},{"type":"Feature","geometry":{"type":"Point","coordinates":[32.340174,60.152275]},"properties":{"d":3.6,"m":4.7,"k":"sounding","z":"channel"}},{"type":"Feature","geometry":{"type":"Point","coordinates":[32.34138,60.153168]},"properties":{"d":3.8,"m":4.9,"k":"sounding","z":"channel"}},{"type":"Feature","geometry":{"type":"Point","coordinates":[32.342396,60.151775]},"properties":{"d":4.4,"m":5.5,"k":"fairway","z":"channel"}},{"type":"Feature","geometry":{"type":"Point","coordinates":[32.342777,60.152687]},"properties":{"d":4.5,"m":5.6,"k":"fairway","z":"channel"}},{"type":"Feature","geometry":{"type":"Point","coordinates":[32.344301,60.152536]},"properties":{"d":3.6,"m":4.7,"k":"sounding","z":"channel"}},{"type":"Feature","geometry":{"type":"Point","coordinates":[32.344809,60.154093]},"properties":{"d":3.9,"m":5.0,"k":"sounding","z":"channel"}},{"type":"Feature","geometry":{"type":"Point","coordinates":[32.346231,60.151953]},"properties":{"d":4.3,"m":5.4,"k":"sounding","z":"channel"}},{"type":"Feature","geometry":{"type":"Point","coordinates":[32.348161,60.152714]},"properties":{"d":4.0,"m":5.1,"k":"sounding","z":"lake"}},{"type":"Feature","geometry":{"type":"Point","coordinates":[32.348808,60.154265]},"properties":{"d":4.0,"m":5.1,"k":"sounding","z":"lake"}},{"type":"Feature","geometry":{"type":"Point","coordinates":[32.349634,60.153322]},"properties":{"d":4.3,"m":5.4,"k":"sounding","z":"lake"}},{"type":"Feature","geometry":{"type":"Point","coordinates":[32.350751,60.152398]},"properties":{"d":3.8,"m":4.9,"k":"sounding","z":"lake"}},{"type":"Feature","geometry":{"type":"Point","coordinates":[32.351792,60.15393]},"properties":{"d":4.0,"m":5.1,"k":"sounding","z":"lake"}},{"type":"Feature","geometry":{"type":"Point","coordinates":[32.354052,60.153804]},"properties":{"d":3.8,"m":4.9,"k":"sounding","z":"lake"}},{"type":"Feature","geometry":{"type":"Point","coordinates":[32.317332,60.14925]},"properties":{"d":3.8,"m":4.9,"k":"sounding","z":"lake"}},{"type":"Feature","geometry":{"type":"Point","coordinates":[32.318094,60.150516]},"properties":{"d":3.6,"m":4.7,"k":"sounding","z":"lake"}},{"type":"Feature","geometry":{"type":"Point","coordinates":[32.318704,60.151694]},"properties":{"d":3.6,"m":4.7,"k":"sounding","z":"lake"}},{"type":"Feature","geometry":{"type":"Point","coordinates":[32.322258,60.149859]},"properties":{"d":3.6,"m":4.7,"k":"sounding","z":"lake"}},{"type":"Feature","geometry":{"type":"Point","coordinates":[32.323071,60.151645]},"properties":{"d":3.8,"m":4.9,"k":"sounding","z":"lake"}},{"type":"Feature","geometry":{"type":"Point","coordinates":[32.326106,60.150024]},"properties":{"d":3.6,"m":4.7,"k":"sounding","z":"lake"}},{"type":"Feature","geometry":{"type":"Point","coordinates":[32.326779,60.151506]},"properties":{"d":3.6,"m":4.7,"k":"sounding","z":"lake"}},{"type":"Feature","geometry":{"type":"Point","coordinates":[32.33168,60.150931]},"properties":{"d":3.6,"m":4.7,"k":"sounding","z":"lake"}},{"type":"Feature","geometry":{"type":"Point","coordinates":[32.334041,60.149659]},"properties":{"d":3.6,"m":4.7,"k":"sounding","z":"lake"}},{"type":"Feature","geometry":{"type":"Point","coordinates":[32.33686,60.151192]},"properties":{"d":3.3,"m":4.4,"k":"sounding","z":"lake"}},{"type":"Feature","geometry":{"type":"Point","coordinates":[32.338168,60.151515]},"properties":{"d":4.1,"m":5.2,"k":"sounding","z":"channel"}},{"type":"Feature","geometry":{"type":"Point","coordinates":[32.338422,60.150267]},"properties":{"d":3.5,"m":4.6,"k":"sounding","z":"channel"}},{"type":"Feature","geometry":{"type":"Point","coordinates":[32.339691,60.149799]},"properties":{"d":2.5,"m":3.6,"k":"obstruction","z":"channel"}},{"type":"Feature","geometry":{"type":"Point","coordinates":[32.340644,60.151376]},"properties":{"d":3.3,"m":4.4,"k":"sounding","z":"channel"}},{"type":"Feature","geometry":{"type":"Point","coordinates":[32.343348,60.15037]},"properties":{"d":3.3,"m":4.4,"k":"sounding","z":"channel"}},{"type":"Feature","geometry":{"type":"Point","coordinates":[32.345011,60.149237]},"properties":{"d":3.3,"m":4.4,"k":"sounding","z":"channel"}},{"type":"Feature","geometry":{"type":"Point","coordinates":[32.345951,60.150579]},"properties":{"d":3.5,"m":4.6,"k":"sounding","z":"channel"}},{"type":"Feature","geometry":{"type":"Point","coordinates":[32.346687,60.149617]},"properties":{"d":2.8,"m":3.9,"k":"sounding","z":"lake"}},{"type":"Feature","geometry":{"type":"Point","coordinates":[32.348262,60.151365]},"properties":{"d":4.1,"m":5.2,"k":"sounding","z":"lake"}},{"type":"Feature","geometry":{"type":"Point","coordinates":[32.348973,60.149687]},"properties":{"d":2.4,"m":3.5,"k":"sounding","z":"lake"}},{"type":"Feature","geometry":{"type":"Point","coordinates":[32.350293,60.150909]},"properties":{"d":3.6,"m":4.7,"k":"sounding","z":"lake"}},{"type":"Feature","geometry":{"type":"Point","coordinates":[32.352947,60.149973]},"properties":{"d":2.8,"m":3.9,"k":"sounding","z":"lake"}},{"type":"Feature","geometry":{"type":"Point","coordinates":[32.353087,60.151499]},"properties":{"d":2.8,"m":3.9,"k":"sounding","z":"lake"}},{"type":"Feature","geometry":{"type":"Point","coordinates":[32.358826,60.151291]},"properties":{"d":2.8,"m":3.9,"k":"sounding","z":"lake"}},{"type":"Feature","geometry":{"type":"Point","coordinates":[32.316684,60.148091]},"properties":{"d":3.6,"m":4.7,"k":"sounding","z":"lake"}},{"type":"Feature","geometry":{"type":"Point","coordinates":[32.321344,60.147782]},"properties":{"d":3.6,"m":4.7,"k":"sounding","z":"lake"}},{"type":"Feature","geometry":{"type":"Point","coordinates":[32.321827,60.148782]},"properties":{"d":3.8,"m":4.9,"k":"sounding","z":"lake"}},{"type":"Feature","geometry":{"type":"Point","coordinates":[32.325763,60.148998]},"properties":{"d":3.2,"m":4.3,"k":"sounding","z":"lake"}},{"type":"Feature","geometry":{"type":"Point","coordinates":[32.330333,60.148081]},"properties":{"d":2.6,"m":3.7,"k":"sounding","z":"lake"}},{"type":"Feature","geometry":{"type":"Point","coordinates":[32.334397,60.148747]},"properties":{"d":2.3,"m":3.4,"k":"sounding","z":"lake"}},{"type":"Feature","geometry":{"type":"Point","coordinates":[32.335095,60.146987]},"properties":{"d":1.7,"m":2.8,"k":"sounding","z":"lake"}},{"type":"Feature","geometry":{"type":"Point","coordinates":[32.336047,60.14862]},"properties":{"d":2.1,"m":3.2,"k":"sounding","z":"lake"}},{"type":"Feature","geometry":{"type":"Point","coordinates":[32.33686,60.14762]},"properties":{"d":1.9,"m":3.0,"k":"sounding","z":"channel"}},{"type":"Feature","geometry":{"type":"Point","coordinates":[32.338129,60.147272]},"properties":{"d":2.0,"m":3.1,"k":"sounding","z":"channel"}},{"type":"Feature","geometry":{"type":"Point","coordinates":[32.338256,60.148798]},"properties":{"d":2.4,"m":3.5,"k":"sounding","z":"channel"}},{"type":"Feature","geometry":{"type":"Point","coordinates":[32.33959,60.148969]},"properties":{"d":2.3,"m":3.4,"k":"sounding","z":"channel"}},{"type":"Feature","geometry":{"type":"Point","coordinates":[32.340593,60.148115]},"properties":{"d":4.5,"m":5.6,"k":"fairway","z":"channel"}},{"type":"Feature","geometry":{"type":"Point","coordinates":[32.341608,60.14676]},"properties":{"d":3.6,"m":4.7,"k":"sounding","z":"channel"}},{"type":"Feature","geometry":{"type":"Point","coordinates":[32.341761,60.147646]},"properties":{"d":3.4,"m":4.5,"k":"sounding","z":"channel"}},{"type":"Feature","geometry":{"type":"Point","coordinates":[32.342865,60.148806]},"properties":{"d":3.1,"m":4.2,"k":"sounding","z":"channel"}},{"type":"Feature","geometry":{"type":"Point","coordinates":[32.343894,60.148268]},"properties":{"d":3.6,"m":4.7,"k":"sounding","z":"channel"}},{"type":"Feature","geometry":{"type":"Point","coordinates":[32.344325,60.14728]},"properties":{"d":3.6,"m":4.7,"k":"sounding","z":"channel"}},{"type":"Feature","geometry":{"type":"Point","coordinates":[32.345811,60.14842]},"properties":{"d":3.1,"m":4.2,"k":"sounding","z":"lake"}},{"type":"Feature","geometry":{"type":"Point","coordinates":[32.346332,60.147502]},"properties":{"d":2.2,"m":3.3,"k":"sounding","z":"lake"}},{"type":"Feature","geometry":{"type":"Point","coordinates":[32.348109,60.147344]},"properties":{"d":2.1,"m":3.2,"k":"sounding","z":"lake"}},{"type":"Feature","geometry":{"type":"Point","coordinates":[32.350318,60.148212]},"properties":{"d":1.6,"m":2.7,"k":"sounding","z":"lake"}},{"type":"Feature","geometry":{"type":"Point","coordinates":[32.352642,60.148092]},"properties":{"d":2.4,"m":3.5,"k":"sounding","z":"lake"}},{"type":"Feature","geometry":{"type":"Point","coordinates":[32.352578,60.147022]},"properties":{"d":2.0,"m":3.1,"k":"sounding","z":"lake"}},{"type":"Feature","geometry":{"type":"Point","coordinates":[32.357099,60.148207]},"properties":{"d":2.4,"m":3.5,"k":"sounding","z":"lake"}},{"type":"Feature","geometry":{"type":"Point","coordinates":[32.357645,60.149157]},"properties":{"d":2.4,"m":3.5,"k":"sounding","z":"lake"}},{"type":"Feature","geometry":{"type":"Point","coordinates":[32.319858,60.144868]},"properties":{"d":2.8,"m":3.9,"k":"sounding","z":"bar_flank"}},{"type":"Feature","geometry":{"type":"Point","coordinates":[32.324645,60.146516]},"properties":{"d":2.8,"m":3.9,"k":"sounding","z":"lake"}},{"type":"Feature","geometry":{"type":"Point","coordinates":[32.328962,60.145301]},"properties":{"d":1.2,"m":2.3,"k":"sounding","z":"lake"}},{"type":"Feature","geometry":{"type":"Point","coordinates":[32.329444,60.146276]},"properties":{"d":1.4,"m":2.5,"k":"sounding","z":"lake"}},{"type":"Feature","geometry":{"type":"Point","coordinates":[32.333698,60.144194]},"properties":{"d":1.9,"m":3.0,"k":"sounding","z":"bar_flank"}},{"type":"Feature","geometry":{"type":"Point","coordinates":[32.335171,60.145834]},"properties":{"d":1.8,"m":2.9,"k":"sounding","z":"channel"}},{"type":"Feature","geometry":{"type":"Point","coordinates":[32.337697,60.146158]},"properties":{"d":2.6,"m":3.7,"k":"sounding","z":"channel"}},{"type":"Feature","geometry":{"type":"Point","coordinates":[32.338675,60.144195]},"properties":{"d":4.3,"m":5.4,"k":"fairway","z":"channel"}},{"type":"Feature","geometry":{"type":"Point","coordinates":[32.339322,60.145493]},"properties":{"d":4.4,"m":5.5,"k":"fairway","z":"channel"}},{"type":"Feature","geometry":{"type":"Point","coordinates":[32.340732,60.144847]},"properties":{"d":3.4,"m":4.5,"k":"sounding","z":"channel"}},{"type":"Feature","geometry":{"type":"Point","coordinates":[32.341735,60.145626]},"properties":{"d":3.5,"m":4.6,"k":"sounding","z":"channel"}},{"type":"Feature","geometry":{"type":"Point","coordinates":[32.342789,60.146374]},"properties":{"d":3.5,"m":4.6,"k":"sounding","z":"channel"}},{"type":"Feature","geometry":{"type":"Point","coordinates":[32.343005,60.145063]},"properties":{"d":3.1,"m":4.2,"k":"sounding","z":"channel"}},{"type":"Feature","geometry":{"type":"Point","coordinates":[32.343576,60.144164]},"properties":{"d":2.5,"m":3.6,"k":"sounding","z":"bar_flank"}},{"type":"Feature","geometry":{"type":"Point","coordinates":[32.345823,60.145406]},"properties":{"d":1.8,"m":2.9,"k":"sounding","z":"lake"}},{"type":"Feature","geometry":{"type":"Point","coordinates":[32.34788,60.145172]},"properties":{"d":2.2,"m":3.3,"k":"sounding","z":"lake"}},{"type":"Feature","geometry":{"type":"Point","coordinates":[32.348439,60.146381]},"properties":{"d":1.4,"m":2.5,"k":"sounding","z":"lake"}},{"type":"Feature","geometry":{"type":"Point","coordinates":[32.349835,60.144685]},"properties":{"d":2.6,"m":3.7,"k":"sounding","z":"bar_flank"}},{"type":"Feature","geometry":{"type":"Point","coordinates":[32.35009,60.14566]},"properties":{"d":2.8,"m":3.9,"k":"sounding","z":"lake"}},{"type":"Feature","geometry":{"type":"Point","coordinates":[32.353162,60.145357]},"properties":{"d":2.6,"m":3.7,"k":"sounding","z":"lake"}},{"type":"Feature","geometry":{"type":"Point","coordinates":[32.35734,60.14644]},"properties":{"d":1.6,"m":2.7,"k":"sounding","z":"lake"}},{"type":"Feature","geometry":{"type":"Point","coordinates":[32.357492,60.144598]},"properties":{"d":0.6,"m":1.7,"k":"sounding","z":"bar_flank"}},{"type":"Feature","geometry":{"type":"Point","coordinates":[32.322511,60.141899]},"properties":{"d":1.2,"m":2.3,"k":"sounding","z":"bar_flank"}},{"type":"Feature","geometry":{"type":"Point","coordinates":[32.323311,60.143704]},"properties":{"d":1.6,"m":2.7,"k":"sounding","z":"bar_flank"}},{"type":"Feature","geometry":{"type":"Point","coordinates":[32.327527,60.142514]},"properties":{"d":0.6,"m":1.7,"k":"sounding","z":"bar_flank"}},{"type":"Feature","geometry":{"type":"Point","coordinates":[32.330574,60.142312]},"properties":{"d":1.2,"m":2.3,"k":"sounding","z":"bar_flank"}},{"type":"Feature","geometry":{"type":"Point","coordinates":[32.331564,60.141629]},"properties":{"d":1.5,"m":2.6,"k":"sounding","z":"bar_flank"}},{"type":"Feature","geometry":{"type":"Point","coordinates":[32.333113,60.143351]},"properties":{"d":1.7,"m":2.8,"k":"sounding","z":"bar_flank"}},{"type":"Feature","geometry":{"type":"Point","coordinates":[32.33385,60.142313]},"properties":{"d":2.7,"m":3.8,"k":"sounding","z":"channel"}},{"type":"Feature","geometry":{"type":"Point","coordinates":[32.33437,60.143219]},"properties":{"d":2.8,"m":3.9,"k":"sounding","z":"channel"}},{"type":"Feature","geometry":{"type":"Point","coordinates":[32.335995,60.141604]},"properties":{"d":3.4,"m":4.5,"k":"sounding","z":"channel"}},{"type":"Feature","geometry":{"type":"Point","coordinates":[32.336554,60.142586]},"properties":{"d":3.1,"m":4.2,"k":"sounding","z":"channel"}},{"type":"Feature","geometry":{"type":"Point","coordinates":[32.337164,60.143758]},"properties":{"d":3.1,"m":4.2,"k":"sounding","z":"channel"}},{"type":"Feature","geometry":{"type":"Point","coordinates":[32.339322,60.142941]},"properties":{"d":3.9,"m":5.0,"k":"sounding","z":"channel"}},{"type":"Feature","geometry":{"type":"Point","coordinates":[32.340211,60.144106]},"properties":{"d":4.1,"m":5.2,"k":"sounding","z":"channel"}},{"type":"Feature","geometry":{"type":"Point","coordinates":[32.34162,60.143771]},"properties":{"d":3.5,"m":4.6,"k":"sounding","z":"channel"}},{"type":"Feature","geometry":{"type":"Point","coordinates":[32.342103,60.141916]},"properties":{"d":2.9,"m":4.0,"k":"sounding","z":"channel"}},{"type":"Feature","geometry":{"type":"Point","coordinates":[32.343322,60.14267]},"properties":{"d":2.9,"m":4.0,"k":"sounding","z":"bar_flank"}},{"type":"Feature","geometry":{"type":"Point","coordinates":[32.344401,60.14172]},"properties":{"d":2.3,"m":3.4,"k":"sounding","z":"bar_flank"}},{"type":"Feature","geometry":{"type":"Point","coordinates":[32.344858,60.142854]},"properties":{"d":1.2,"m":2.3,"k":"sounding","z":"bar_flank"}},{"type":"Feature","geometry":{"type":"Point","coordinates":[32.345823,60.143652]},"properties":{"d":1.8,"m":2.9,"k":"sounding","z":"bar_flank"}},{"type":"Feature","geometry":{"type":"Point","coordinates":[32.346635,60.141701]},"properties":{"d":0.8,"m":1.9,"k":"sounding","z":"bar_flank"}},{"type":"Feature","geometry":{"type":"Point","coordinates":[32.348464,60.143361]},"properties":{"d":1.8,"m":2.9,"k":"sounding","z":"bar_flank"}},{"type":"Feature","geometry":{"type":"Point","coordinates":[32.352324,60.142317]},"properties":{"d":0.8,"m":1.9,"k":"sounding","z":"bar_flank"}},{"type":"Feature","geometry":{"type":"Point","coordinates":[32.353784,60.143527]},"properties":{"d":1.6,"m":2.7,"k":"sounding","z":"bar_flank"}},{"type":"Feature","geometry":{"type":"Point","coordinates":[32.354457,60.142444]},"properties":{"d":1.4,"m":2.5,"k":"sounding","z":"bar_flank"}},{"type":"Feature","geometry":{"type":"Point","coordinates":[32.358126,60.143559]},"properties":{"d":1.2,"m":2.3,"k":"sounding","z":"bar_flank"}},{"type":"Feature","geometry":{"type":"Point","coordinates":[32.358456,60.142635]},"properties":{"d":1.2,"m":2.3,"k":"sounding","z":"bar_flank"}},{"type":"Feature","geometry":{"type":"Point","coordinates":[32.317318,60.140049]},"properties":{"d":2.4,"m":3.5,"k":"sounding","z":"bar_flank"}},{"type":"Feature","geometry":{"type":"Point","coordinates":[32.318029,60.1411]},"properties":{"d":2.6,"m":3.7,"k":"sounding","z":"bar_flank"}},{"type":"Feature","geometry":{"type":"Point","coordinates":[32.321724,60.140322]},"properties":{"d":0.8,"m":1.9,"k":"sounding","z":"bar_flank"}},{"type":"Feature","geometry":{"type":"Point","coordinates":[32.325634,60.139152]},"properties":{"d":0.2,"m":1.3,"k":"sounding","z":"bar_flank"}},{"type":"Feature","geometry":{"type":"Point","coordinates":[32.326726,60.140849]},"properties":{"d":0.2,"m":1.3,"k":"sounding","z":"bar_flank"}},{"type":"Feature","geometry":{"type":"Point","coordinates":[32.330256,60.13926]},"properties":{"d":0.8,"m":1.9,"k":"sounding","z":"bar_flank"}},{"type":"Feature","geometry":{"type":"Point","coordinates":[32.331577,60.140274]},"properties":{"d":1.7,"m":2.8,"k":"sounding","z":"bar_flank"}},{"type":"Feature","geometry":{"type":"Point","coordinates":[32.333075,60.140597]},"properties":{"d":2.5,"m":3.6,"k":"sounding","z":"channel"}},{"type":"Feature","geometry":{"type":"Point","coordinates":[32.333621,60.139426]},"properties":{"d":3.5,"m":4.6,"k":"sounding","z":"channel"}},{"type":"Feature","geometry":{"type":"Point","coordinates":[32.336503,60.139945]},"properties":{"d":4.5,"m":5.6,"k":"fairway","z":"channel"}},{"type":"Feature","geometry":{"type":"Point","coordinates":[32.338573,60.141516]},"properties":{"d":3.9,"m":5.0,"k":"sounding","z":"channel"}},{"type":"Feature","geometry":{"type":"Point","coordinates":[32.338623,60.139173]},"properties":{"d":3.2,"m":4.3,"k":"sounding","z":"channel"}},{"type":"Feature","geometry":{"type":"Point","coordinates":[32.338992,60.140414]},"properties":{"d":3.3,"m":4.4,"k":"sounding","z":"channel"}},{"type":"Feature","geometry":{"type":"Point","coordinates":[32.340249,60.141143]},"properties":{"d":3.1,"m":4.2,"k":"sounding","z":"channel"}},{"type":"Feature","geometry":{"type":"Point","coordinates":[32.341531,60.139231]},"properties":{"d":2.5,"m":3.6,"k":"sounding","z":"bar_flank"}},{"type":"Feature","geometry":{"type":"Point","coordinates":[32.342445,60.140953]},"properties":{"d":2.7,"m":3.8,"k":"sounding","z":"bar_flank"}},{"type":"Feature","geometry":{"type":"Point","coordinates":[32.342648,60.139655]},"properties":{"d":1.8,"m":2.9,"k":"sounding","z":"bar_flank"}},{"type":"Feature","geometry":{"type":"Point","coordinates":[32.349721,60.141556]},"properties":{"d":0.2,"m":1.3,"k":"sounding","z":"bar_flank"}},{"type":"Feature","geometry":{"type":"Point","coordinates":[32.354825,60.140861]},"properties":{"d":0.8,"m":1.9,"k":"sounding","z":"bar_flank"}},{"type":"Feature","geometry":{"type":"Point","coordinates":[32.359243,60.140653]},"properties":{"d":0.8,"m":1.9,"k":"sounding","z":"bar_flank"}},{"type":"Feature","geometry":{"type":"Point","coordinates":[32.359637,60.13964]},"properties":{"d":0.2,"m":1.3,"k":"sounding","z":"bar_flank"}},{"type":"Feature","geometry":{"type":"Point","coordinates":[32.316429,60.138871]},"properties":{"d":2.2,"m":3.3,"k":"sounding","z":"bar_flank"}},{"type":"Feature","geometry":{"type":"Point","coordinates":[32.32067,60.138448]},"properties":{"d":0.6,"m":1.7,"k":"sounding","z":"bar_flank"}},{"type":"Feature","geometry":{"type":"Point","coordinates":[32.324847,60.13748]},"properties":{"d":0.2,"m":1.3,"k":"sounding","z":"bar_flank"}},{"type":"Feature","geometry":{"type":"Point","coordinates":[32.329037,60.138367]},"properties":{"d":0.4,"m":1.5,"k":"sounding","z":"bar_flank"}},{"type":"Feature","geometry":{"type":"Point","coordinates":[32.331678,60.137196]},"properties":{"d":2.9,"m":4.0,"k":"sounding","z":"channel"}},{"type":"Feature","geometry":{"type":"Point","coordinates":[32.333062,60.137589]},"properties":{"d":3.5,"m":4.6,"k":"sounding","z":"channel"}},{"type":"Feature","geometry":{"type":"Point","coordinates":[32.334725,60.138755]},"properties":{"d":4.4,"m":5.5,"k":"sounding","z":"channel"}},{"type":"Feature","geometry":{"type":"Point","coordinates":[32.336591,60.137109]},"properties":{"d":4.1,"m":5.2,"k":"sounding","z":"channel"}},{"type":"Feature","geometry":{"type":"Point","coordinates":[32.337379,60.138274]},"properties":{"d":3.9,"m":5.0,"k":"sounding","z":"channel"}},{"type":"Feature","geometry":{"type":"Point","coordinates":[32.338217,60.136704]},"properties":{"d":3.5,"m":4.6,"k":"sounding","z":"channel"}},{"type":"Feature","geometry":{"type":"Point","coordinates":[32.338852,60.137679]},"properties":{"d":3.3,"m":4.4,"k":"sounding","z":"channel"}},{"type":"Feature","geometry":{"type":"Point","coordinates":[32.340007,60.136723]},"properties":{"d":1.5,"m":2.6,"k":"sounding","z":"bar_flank"}},{"type":"Feature","geometry":{"type":"Point","coordinates":[32.340452,60.138407]},"properties":{"d":2.7,"m":3.8,"k":"sounding","z":"bar_flank"}},{"type":"Feature","geometry":{"type":"Point","coordinates":[32.341911,60.137053]},"properties":{"d":0.2,"m":1.3,"k":"sounding","z":"bar_flank"}},{"type":"Feature","geometry":{"type":"Point","coordinates":[32.343791,60.138402]},"properties":{"d":0.2,"m":1.3,"k":"sounding","z":"bar_flank"}},{"type":"Feature","geometry":{"type":"Point","coordinates":[32.359624,60.138709]},"properties":{"d":0.2,"m":1.3,"k":"sounding","z":"bar_flank"}},{"type":"Feature","geometry":{"type":"Point","coordinates":[32.329798,60.135492]},"properties":{"d":0.7,"m":1.8,"k":"sounding","z":"channel"}},{"type":"Feature","geometry":{"type":"Point","coordinates":[32.331995,60.134106]},"properties":{"d":4.1,"m":5.2,"k":"sounding","z":"channel"}},{"type":"Feature","geometry":{"type":"Point","coordinates":[32.332782,60.135233]},"properties":{"d":4.5,"m":5.6,"k":"sounding","z":"channel"}},{"type":"Feature","geometry":{"type":"Point","coordinates":[32.33315,60.136399]},"properties":{"d":4.2,"m":5.3,"k":"sounding","z":"channel"}},{"type":"Feature","geometry":{"type":"Point","coordinates":[32.334293,60.135348]},"properties":{"d":4.8,"m":5.9,"k":"fairway","z":"channel"}},{"type":"Feature","geometry":{"type":"Point","coordinates":[32.335372,60.134905]},"properties":{"d":4.9,"m":6.0,"k":"sounding","z":"channel"}},{"type":"Feature","geometry":{"type":"Point","coordinates":[32.336579,60.135975]},"properties":{"d":4.1,"m":5.2,"k":"sounding","z":"channel"}},{"type":"Feature","geometry":{"type":"Point","coordinates":[32.336591,60.134101]},"properties":{"d":3.6,"m":4.7,"k":"sounding","z":"channel"}},{"type":"Feature","geometry":{"type":"Point","coordinates":[32.337201,60.135158]},"properties":{"d":3.6,"m":4.7,"k":"sounding","z":"channel"}},{"type":"Feature","geometry":{"type":"Point","coordinates":[32.338991,60.135121]},"properties":{"d":1.8,"m":2.9,"k":"sounding","z":"bar_flank"}},{"type":"Feature","geometry":{"type":"Point","coordinates":[32.340642,60.136273]},"properties":{"d":0.2,"m":1.3,"k":"sounding","z":"bar_flank"}},{"type":"Feature","geometry":{"type":"Point","coordinates":[32.328363,60.133276]},"properties":{"d":0.8,"m":1.9,"k":"sounding","z":"bar_flank"}},{"type":"Feature","geometry":{"type":"Point","coordinates":[32.329074,60.132497]},"properties":{"d":2.1,"m":3.2,"k":"sounding","z":"channel"}},{"type":"Feature","geometry":{"type":"Point","coordinates":[32.330255,60.133916]},"properties":{"d":2.4,"m":3.5,"k":"sounding","z":"channel"}},{"type":"Feature","geometry":{"type":"Point","coordinates":[32.331271,60.132244]},"properties":{"d":4.8,"m":5.9,"k":"sounding","z":"channel"}},{"type":"Feature","geometry":{"type":"Point","coordinates":[32.331575,60.131991]},"properties":{"d":5.1,"m":6.2,"k":"sounding","z":"channel"}},{"type":"Feature","geometry":{"type":"Point","coordinates":[32.331969,60.13334]},"properties":{"d":4.9,"m":6.0,"k":"sounding","z":"channel"}},{"type":"Feature","geometry":{"type":"Point","coordinates":[32.334191,60.131567]},"properties":{"d":2.0,"m":3.1,"k":"sounding","z":"channel"}},{"type":"Feature","geometry":{"type":"Point","coordinates":[32.334407,60.132315]},"properties":{"d":2.2,"m":3.3,"k":"sounding","z":"channel"}},{"type":"Feature","geometry":{"type":"Point","coordinates":[32.335029,60.13165]},"properties":{"d":2.0,"m":3.1,"k":"sounding","z":"channel"}},{"type":"Feature","geometry":{"type":"Point","coordinates":[32.335702,60.132517]},"properties":{"d":2.9,"m":4.0,"k":"sounding","z":"channel"}},{"type":"Feature","geometry":{"type":"Point","coordinates":[32.336553,60.131701]},"properties":{"d":2.8,"m":3.9,"k":"sounding","z":"channel"}},{"type":"Feature","geometry":{"type":"Point","coordinates":[32.337226,60.132961]},"properties":{"d":3.3,"m":4.4,"k":"sounding","z":"channel"}},{"type":"Feature","geometry":{"type":"Point","coordinates":[32.338368,60.132277]},"properties":{"d":2.2,"m":3.3,"k":"sounding","z":"bar_flank"}},{"type":"Feature","geometry":{"type":"Point","coordinates":[32.339105,60.133791]},"properties":{"d":0.8,"m":1.9,"k":"sounding","z":"bar_flank"}},{"type":"Feature","geometry":{"type":"Point","coordinates":[32.326408,60.130483]},"properties":{"d":0.6,"m":1.7,"k":"sounding","z":"bar_flank"}},{"type":"Feature","geometry":{"type":"Point","coordinates":[32.327347,60.129786]},"properties":{"d":1.7,"m":2.8,"k":"sounding","z":"mouth"}},{"type":"Feature","geometry":{"type":"Point","coordinates":[32.327487,60.131325]},"properties":{"d":1.6,"m":2.7,"k":"sounding","z":"bar_flank"}},{"type":"Feature","geometry":{"type":"Point","coordinates":[32.32835,60.13054]},"properties":{"d":2.1,"m":3.2,"k":"sounding","z":"channel"}},{"type":"Feature","geometry":{"type":"Point","coordinates":[32.328972,60.131275]},"properties":{"d":2.5,"m":3.6,"k":"sounding","z":"channel"}},{"type":"Feature","geometry":{"type":"Point","coordinates":[32.330306,60.130408]},"properties":{"d":4.1,"m":5.2,"k":"sounding","z":"channel"}},{"type":"Feature","geometry":{"type":"Point","coordinates":[32.330763,60.131168]},"properties":{"d":4.8,"m":5.9,"k":"sounding","z":"channel"}},{"type":"Feature","geometry":{"type":"Point","coordinates":[32.333454,60.130947]},"properties":{"d":2.9,"m":4.0,"k":"sounding","z":"channel"}},{"type":"Feature","geometry":{"type":"Point","coordinates":[32.334204,60.130909]},"properties":{"d":2.2,"m":3.3,"k":"sounding","z":"channel"}},{"type":"Feature","geometry":{"type":"Point","coordinates":[32.334724,60.129408]},"properties":{"d":1.2,"m":2.3,"k":"sounding","z":"mouth"}},{"type":"Feature","geometry":{"type":"Point","coordinates":[32.335105,60.130535]},"properties":{"d":1.4,"m":2.5,"k":"sounding","z":"channel"}},{"type":"Feature","geometry":{"type":"Point","coordinates":[32.33626,60.130896]},"properties":{"d":2.5,"m":3.6,"k":"sounding","z":"channel"}},{"type":"Feature","geometry":{"type":"Point","coordinates":[32.336844,60.129731]},"properties":{"d":2.5,"m":3.6,"k":"sounding","z":"mouth"}},{"type":"Feature","geometry":{"type":"Point","coordinates":[32.337352,60.130612]},"properties":{"d":3.8,"m":4.9,"k":"sounding","z":"bar_flank"}},{"type":"Feature","geometry":{"type":"Point","coordinates":[32.338482,60.1311]},"properties":{"d":0.6,"m":1.7,"k":"sounding","z":"bar_flank"}},{"type":"Feature","geometry":{"type":"Point","coordinates":[32.338838,60.12977]},"properties":{"d":2.4,"m":3.5,"k":"sounding","z":"mouth"}},{"type":"Feature","geometry":{"type":"Point","coordinates":[32.339193,60.129016]},"properties":{"d":0.9,"m":2.0,"k":"sounding","z":"mouth"}},{"type":"Feature","geometry":{"type":"Point","coordinates":[32.327169,60.127728]},"properties":{"d":1.5,"m":2.6,"k":"sounding","z":"mouth"}},{"type":"Feature","geometry":{"type":"Point","coordinates":[32.327321,60.126874]},"properties":{"d":1.7,"m":2.8,"k":"sounding","z":"mouth"}},{"type":"Feature","geometry":{"type":"Point","coordinates":[32.327804,60.128685]},"properties":{"d":1.9,"m":3.0,"k":"sounding","z":"mouth"}},{"type":"Feature","geometry":{"type":"Point","coordinates":[32.335613,60.128591]},"properties":{"d":1.2,"m":2.3,"k":"sounding","z":"mouth"}},{"type":"Feature","geometry":{"type":"Point","coordinates":[32.335638,60.127268]},"properties":{"d":1.7,"m":2.8,"k":"sounding","z":"mouth"}},{"type":"Feature","geometry":{"type":"Point","coordinates":[32.337263,60.128763]},"properties":{"d":2.7,"m":3.8,"k":"sounding","z":"mouth"}},{"type":"Feature","geometry":{"type":"Point","coordinates":[32.337365,60.127895]},"properties":{"d":2.4,"m":3.5,"k":"sounding","z":"mouth"}},{"type":"Feature","geometry":{"type":"Point","coordinates":[32.338101,60.12699]},"properties":{"d":2.8,"m":3.9,"k":"sounding","z":"mouth"}},{"type":"Feature","geometry":{"type":"Point","coordinates":[32.339396,60.127668]},"properties":{"d":1.6,"m":2.7,"k":"sounding","z":"mouth"}},{"type":"Feature","geometry":{"type":"Point","coordinates":[32.327587,60.123929]},"properties":{"d":2.2,"m":3.3,"k":"sounding","z":"mouth"}},{"type":"Feature","geometry":{"type":"Point","coordinates":[32.328692,60.125266]},"properties":{"d":3.3,"m":4.4,"k":"sounding","z":"mouth"}},{"type":"Feature","geometry":{"type":"Point","coordinates":[32.331143,60.125545]},"properties":{"d":4.2,"m":5.3,"k":"sounding","z":"mouth"}},{"type":"Feature","geometry":{"type":"Point","coordinates":[32.33179,60.125133]},"properties":{"d":3.3,"m":4.4,"k":"sounding","z":"mouth"}},{"type":"Feature","geometry":{"type":"Point","coordinates":[32.331981,60.123892]},"properties":{"d":2.8,"m":3.9,"k":"sounding","z":"mouth"}},{"type":"Feature","geometry":{"type":"Point","coordinates":[32.335244,60.12583]},"properties":{"d":2.2,"m":3.3,"k":"sounding","z":"mouth"}},{"type":"Feature","geometry":{"type":"Point","coordinates":[32.339383,60.126306]},"properties":{"d":1.5,"m":2.6,"k":"sounding","z":"mouth"}},{"type":"Feature","geometry":{"type":"Point","coordinates":[32.329301,60.122834]},"properties":{"d":4.5,"m":5.6,"k":"sounding","z":"mouth"}},{"type":"Feature","geometry":{"type":"Point","coordinates":[32.329644,60.123771]},"properties":{"d":4.3,"m":5.4,"k":"fairway","z":"mouth"}},{"type":"Feature","geometry":{"type":"Point","coordinates":[32.331269,60.12324]},"properties":{"d":3.5,"m":4.6,"k":"sounding","z":"mouth"}},{"type":"Feature","geometry":{"type":"Point","coordinates":[32.331549,60.122334]},"properties":{"d":3.1,"m":4.2,"k":"sounding","z":"mouth"}},{"type":"Feature","geometry":{"type":"Point","coordinates":[32.333161,60.122626]},"properties":{"d":2.6,"m":3.7,"k":"sounding","z":"mouth"}},{"type":"Feature","geometry":{"type":"Point","coordinates":[32.333733,60.123481]},"properties":{"d":2.6,"m":3.7,"k":"sounding","z":"mouth"}},{"type":"Feature","geometry":{"type":"Point","coordinates":[32.33419,60.121778]},"properties":{"d":2.8,"m":3.9,"k":"sounding","z":"mouth"}},{"type":"Feature","geometry":{"type":"Point","coordinates":[32.335409,60.123614]},"properties":{"d":2.8,"m":3.9,"k":"sounding","z":"mouth"}},{"type":"Feature","geometry":{"type":"Point","coordinates":[32.335891,60.122285]},"properties":{"d":2.6,"m":3.7,"k":"sounding","z":"mouth"}},{"type":"Feature","geometry":{"type":"Point","coordinates":[32.336247,60.122886]},"properties":{"d":2.6,"m":3.7,"k":"sounding","z":"mouth"}},{"type":"Feature","geometry":{"type":"Point","coordinates":[32.336907,60.123811]},"properties":{"d":2.2,"m":3.3,"k":"sounding","z":"mouth"}},{"type":"Feature","geometry":{"type":"Point","coordinates":[32.337516,60.121747]},"properties":{"d":1.5,"m":2.6,"k":"sounding","z":"mouth"}},{"type":"Feature","geometry":{"type":"Point","coordinates":[32.327549,60.120459]},"properties":{"d":1.5,"m":2.6,"k":"sounding","z":"mouth"}},{"type":"Feature","geometry":{"type":"Point","coordinates":[32.327854,60.11963]},"properties":{"d":2.6,"m":3.7,"k":"sounding","z":"mouth"}},{"type":"Feature","geometry":{"type":"Point","coordinates":[32.331396,60.11963]},"properties":{"d":3.0,"m":4.1,"k":"sounding","z":"mouth"}},{"type":"Feature","geometry":{"type":"Point","coordinates":[32.331548,60.120593]},"properties":{"d":3.3,"m":4.4,"k":"sounding","z":"mouth"}},{"type":"Feature","geometry":{"type":"Point","coordinates":[32.331904,60.121321]},"properties":{"d":3.2,"m":4.3,"k":"sounding","z":"mouth"}},{"type":"Feature","geometry":{"type":"Point","coordinates":[32.332691,60.120131]},"properties":{"d":2.8,"m":3.9,"k":"sounding","z":"mouth"}},{"type":"Feature","geometry":{"type":"Point","coordinates":[32.333605,60.12072]},"properties":{"d":2.8,"m":3.9,"k":"sounding","z":"mouth"}},{"type":"Feature","geometry":{"type":"Point","coordinates":[32.333631,60.119441]},"properties":{"d":3.4,"m":4.5,"k":"sounding","z":"mouth"}},{"type":"Feature","geometry":{"type":"Point","coordinates":[32.334672,60.118928]},"properties":{"d":3.1,"m":4.2,"k":"sounding","z":"mouth"}},{"type":"Feature","geometry":{"type":"Point","coordinates":[32.334773,60.120315]},"properties":{"d":2.7,"m":3.8,"k":"sounding","z":"mouth"}},{"type":"Feature","geometry":{"type":"Point","coordinates":[32.335154,60.119479]},"properties":{"d":2.8,"m":3.9,"k":"sounding","z":"mouth"}},{"type":"Feature","geometry":{"type":"Point","coordinates":[32.335281,60.120974]},"properties":{"d":3.0,"m":4.1,"k":"sounding","z":"mouth"}},{"type":"Feature","geometry":{"type":"Point","coordinates":[32.329085,60.118465]},"properties":{"d":4.4,"m":5.5,"k":"fairway","z":"mouth"}},{"type":"Feature","geometry":{"type":"Point","coordinates":[32.329694,60.117483]},"properties":{"d":5.0,"m":6.1,"k":"sounding","z":"mouth"}},{"type":"Feature","geometry":{"type":"Point","coordinates":[32.330469,60.116939]},"properties":{"d":4.6,"m":5.7,"k":"sounding","z":"mouth"}},{"type":"Feature","geometry":{"type":"Point","coordinates":[32.33137,60.118313]},"properties":{"d":3.8,"m":4.9,"k":"sounding","z":"mouth"}},{"type":"Feature","geometry":{"type":"Point","coordinates":[32.331472,60.117553]},"properties":{"d":4.3,"m":5.4,"k":"sounding","z":"mouth"}},{"type":"Feature","geometry":{"type":"Point","coordinates":[32.331865,60.116521]},"properties":{"d":4.5,"m":5.6,"k":"sounding","z":"mouth"}},{"type":"Feature","geometry":{"type":"Point","coordinates":[32.334253,60.118428]},"properties":{"d":3.2,"m":4.3,"k":"sounding","z":"mouth"}}]}