{"type":"FeatureCollection","name":"ladoga_south_isobaths_gldb","metadata":{"generated":"2026-09-22","bbox":[30.9,59.85,33.4,60.8],"levels_m":[2,4,6,8,10,15,20,30,50,70],"vertical_datum":"не указан в GLDB (глубины относительно среднего уровня озера, ~5 м БС)","warning":"Модельные изобаты по грубой сетке; для рыбалки — ориентир по 'рельефу' (где глубже/мельче), не для навигации."},"features":[{"type":"Feature","properties":{"depth_m":2,"name":"Изобата 2 м (модель GLDB, ~1 км)","source":"GLDBv2 Global Lake Database v2 (Kourzeneva & Choulga; FLake, IGB Berlin) — GlobalLakeDepth.dat, 30″; Ladoga local depths digitised from maps (Hydrometcentre St Petersburg)","source_url":"http://www.flake.igb-berlin.de/site/external-dataset","license":"CC BY (Choulga et al. 2019, Adv. Sci. Res. 16:57, data availability); cite Kourzeneva et al. 2012 Tellus A 64:15640 and Choulga et al. 2014 Tellus A 66:21295","attribution":"Изобаты: GLDB v2 (Kourzeneva, Choulga), CC BY","accuracy_note":"Грубая модель: сетка 30″ (~0.46×0.93 км), сглажено; положение изобат ±0.5–1 км, у берега и на банках не точна. Не для навигации.","derived_by":"ladoga-fishing-map research agent 'depth' (skimage find_contours + Chaikin smoothing), 2026-09-22"},"geometry":{"type":"MultiLineString","coordinates":[[[32.81404,60.8],[32.81418,60.79688],[32.81155,60.77795],[32.81059,60.75938],[32.80632,60.74063],[32.80589,60.73438],[32.80661,60.72813],[32.8082,60.72203],[32.8099,60.71865],[32.8138,60.71344],[32.81693,60.71122],[32.82201,60.70879],[32.82812,60.70678],[32.83718,60.70512],[32.84312,60.70156],[32.84694,60.70009],[32.86146,60.69807],[32.86771,60.69664],[32.87109,60.69441],[32.87552,60.68745],[32.8776,60.68561],[32.88229,60.68428],[32.89453,60.68319],[32.8974,60.68177],[32.9026,60.67704],[32.9038,60.67662],[32.90667,60.67704],[32.91256,60.68042],[32.91473,60.68021],[32.91935,60.67865],[32.92775,60.6727],[32.93147,60.67065],[32.93527,60.66758],[32.94094,60.6617],[32.94815,60.6553],[32.95243,60.64896],[32.95303,60.64479],[32.95246,60.64271],[32.94587,60.63147],[32.9449,60.62909],[32.94363,60.62188],[32.94236,60.60521],[32.94103,60.60104],[32.93791,60.59441],[32.93437,60.59166],[32.92839,60.58811],[32.92318,60.5863],[32.91966,60.5845],[32.91369,60.57985],[32.91027,60.57604],[32.90754,60.57187],[32.9058,60.56771],[32.90441,60.56222],[32.90372,60.56157],[32.89696,60.55754],[32.88602,60.55287],[32.86562,60.54173],[32.85937,60.53913],[32.84062,60.53303],[32.81958,60.52757],[32.80292,60.52178],[32.79625,60.5181],[32.79062,60.51576],[32.78646,60.51474],[32.78229,60.51444],[32.74687,60.5169],[32.73229,60.51724],[32.72812,60.51773],[32.70295,60.52222],[32.69687,60.52367],[32.68646,60.52725],[32.67448,60.52934],[32.6526,60.53703],[32.63646,60.5392],[32.62604,60.53934],[32.62096,60.53853],[32.61875,60.53748],[32.6118,60.53305],[32.60411,60.52721],[32.59281,60.52094],[32.58732,60.51615],[32.58586,60.51406],[32.58544,60.5112],[32.58733,60.50359],[32.59406,60.49567],[32.60751,60.47396],[32.61467,60.46406],[32.61901,60.46084],[32.6349,60.45395],[32.63746,60.45231],[32.64557,60.44549],[32.64893,60.4387],[32.65233,60.4349],[32.65542,60.43337],[32.66354,60.43164],[32.66771,60.43028],[32.67067,60.42779],[32.67155,60.42604],[32.67575,60.41146],[32.67624,60.40521],[32.67589,60.39896],[32.67438,60.39271],[32.67227,60.38757],[32.67075,60.38519],[32.66399,60.37865],[32.64918,60.37128],[32.64592,60.36892],[32.64094,60.36332],[32.63906,60.36016],[32.63692,60.35495],[32.62932,60.34559],[32.62187,60.3444],[32.61354,60.34422],[32.60069,60.34555],[32.59444,60.34719],[32.589,60.34734],[32.58711,60.34688],[32.58242,60.34062],[32.58045,60.33646],[32.58016,60.33229],[32.58066,60.33033],[32.58297,60.32676],[32.5887,60.32155],[32.59214,60.31207],[32.5985,60.30426],[32.59943,60.29688],[32.60322,60.28854],[32.60521,60.27813],[32.6099,60.27073],[32.61562,60.26438],[32.61759,60.26125],[32.61908,60.25521],[32.6187,60.25104],[32.61731,60.24688],[32.61161,60.23438],[32.60868,60.21979],[32.60667,60.21399],[32.60547,60.21209],[32.59546,60.20594],[32.58765,60.2027],[32.58049,60.19896],[32.56955,60.19199],[32.55104,60.18432],[32.53622,60.17539],[32.52708,60.17178],[32.48229,60.15817],[32.47187,60.15564],[32.45521,60.15285],[32.43519,60.1459],[32.42798,60.14406],[32.41562,60.14265],[32.39896,60.14198],[32.38437,60.14182],[32.36354,60.14235],[32.35312,60.1402],[32.32396,60.13681],[32.30729,60.134],[32.30312,60.13374],[32.29687,60.13431],[32.29271,60.13307],[32.28854,60.13098],[32.28437,60.13038],[32.27396,60.13247],[32.25469,60.13955],[32.23724,60.14401],[32.23281,60.14622],[32.22187,60.1533],[32.21198,60.15781],[32.20903,60.16042],[32.2059,60.16406],[32.19115,60.18611],[32.1875,60.1901],[32.17214,60.20104],[32.15521,60.21172],[32.13735,60.22059],[32.13013,60.22679],[32.1281,60.22783],[32.12187,60.22946],[32.11979,60.23059],[32.10714,60.24203],[32.10373,60.2445],[32.09885,60.24629],[32.09062,60.25161],[32.08646,60.25318],[32.06354,60.25495],[32.05937,60.25482],[32.03854,60.25094],[32.0224,60.24497],[32.01146,60.24269],[31.99271,60.24127],[31.96354,60.24131],[31.95521,60.24081],[31.94479,60.2383],[31.92786,60.22948],[31.92318,60.22849],[31.91771,60.2282],[31.89948,60.22932],[31.88854,60.23165],[31.87812,60.23595],[31.86562,60.23722],[31.86146,60.23812],[31.84596,60.24464],[31.82812,60.25439],[31.82396,60.2559],[31.81979,60.25677],[31.81354,60.25677],[31.80104,60.25365],[31.79271,60.25278],[31.78724,60.25304],[31.77604,60.25595],[31.76354,60.25842],[31.75729,60.25908],[31.75104,60.25916],[31.73021,60.25803],[31.71979,60.25636],[31.71354,60.25441],[31.69577,60.24736],[31.68945,60.24347],[31.68606,60.24034],[31.68197,60.23507],[31.67458,60.22396],[31.67089,60.21684],[31.66927,60.21481],[31.6651,60.21161],[31.65339,60.20514],[31.64387,60.19592],[31.63818,60.19166],[31.61562,60.18192],[31.60299,60.1745],[31.59048,60.17005],[31.56354,60.15731],[31.55521,60.15416],[31.55104,60.15139],[31.54518,60.14618],[31.54518,60.14544],[31.54733,60.1438],[31.56189,60.13464],[31.56576,60.13112],[31.5668,60.12962],[31.5681,60.12604],[31.56831,60.12188],[31.5673,60.11771],[31.56399,60.11198],[31.54725,60.10425],[31.5343,60.09611],[31.52954,60.09375],[31.52187,60.09149],[31.50156,60.08749],[31.48698,60.08164],[31.48403,60.08021],[31.48316,60.07917],[31.48299,60.07604],[31.48507,60.07083],[31.49097,60.06458],[31.49549,60.06094],[31.49844,60.0551],[31.50069,60.05193],[31.50496,60.04814],[31.51027,60.0452],[31.51641,60.03689],[31.52155,60.03247],[31.52905,60.02726],[31.53559,60.02046],[31.53778,60.0151],[31.53949,60.00313],[31.54111,59.99696],[31.54505,59.9901],[31.55297,59.98021],[31.55479,59.97604],[31.55542,59.97237],[31.55521,59.97068],[31.55285,59.96897],[31.53713,59.95308],[31.53348,59.94687],[31.53028,59.93776],[31.52887,59.93602],[31.52187,59.93151],[31.51771,59.93003],[31.50521,59.92899],[31.49896,59.92743],[31.49531,59.92552],[31.48854,59.91979],[31.48437,59.91917],[31.46979,59.9182],[31.44062,59.91845],[31.42187,59.91797],[31.39479,59.91503],[31.38854,59.91529],[31.38021,59.91658],[31.36146,59.92153],[31.35391,59.92552],[31.35156,59.9276],[31.34948,59.93047],[31.34219,59.94453],[31.33906,59.94844],[31.3362,59.9503],[31.33229,59.95186],[31.32604,59.95308],[31.31146,59.95334],[31.28229,59.95219],[31.27812,59.95104],[31.26979,59.94635],[31.25729,59.94386],[31.25443,59.94397],[31.24844,59.94881],[31.24511,59.9494],[31.24198,59.94762],[31.23964,59.94535],[31.23831,59.94323],[31.23607,59.9417],[31.2099,59.93781],[31.20573,59.93676],[31.19687,59.93336],[31.19271,59.93244],[31.18854,59.93218],[31.18021,59.93323],[31.16354,59.93771],[31.15937,59.94062],[31.15573,59.94479],[31.15469,59.94687],[31.15417,59.95104],[31.15365,59.95208],[31.1526,59.95208],[31.15104,59.95104],[31.14062,59.94062],[31.13646,59.93802],[31.13437,59.9375],[31.11354,59.93763],[31.10312,59.93945],[31.09479,59.93997],[31.07812,59.94359],[31.06562,59.94544],[31.06458,59.94616],[31.06458,59.94733],[31.06562,59.94896],[31.06979,59.95281],[31.07396,59.95542],[31.07982,59.95823],[31.08307,59.96063],[31.0849,59.96375],[31.08516,59.96562],[31.08385,59.97604],[31.0842,59.97943],[31.0849,59.98073],[31.08984,59.9849],[31.09596,59.98872],[31.1028,59.99497],[31.10534,59.99896],[31.10951,60.00938],[31.11146,60.01302],[31.12187,60.01953],[31.13385,60.02891],[31.13646,60.03438],[31.13646,60.03631],[31.13576,60.0381],[31.13437,60.03973],[31.12708,60.04435],[31.10312,60.05442],[31.08668,60.05964],[31.08162,60.06196],[31.07961,60.06337],[31.07755,60.07005],[31.07411,60.07812],[31.07333,60.08437],[31.07373,60.08854],[31.0753,60.09479],[31.07778,60.10104],[31.08214,60.10938],[31.08274,60.1126],[31.08214,60.11375],[31.0791,60.11656],[31.07616,60.1216],[31.06922,60.1282],[31.06258,60.13641],[31.05017,60.14896],[31.04036,60.16223],[31.03229,60.16647],[31.02812,60.168],[31.01172,60.17059],[30.99896,60.17328],[30.98385,60.17912],[30.98073,60.18073],[30.97698,60.18385],[30.9724,60.18884],[30.96833,60.1971],[30.9627,60.20464],[30.95469,60.21354],[30.94726,60.2201],[30.94502,60.22396],[30.94265,60.23],[30.93981,60.2337],[30.93638,60.23709],[30.93543,60.23899],[30.93349,60.24688],[30.93142,60.26131],[30.92865,60.26935],[30.92101,60.27808],[30.91055,60.28633],[30.90499,60.29479],[30.90214,60.30313],[30.9,60.31281]],[[31.35903,59.96458],[31.36295,59.9691],[31.36468,59.97604],[31.36622,59.97969],[31.37014,59.98385],[31.37656,59.98748],[31.38854,59.99126],[31.39678,59.99531],[31.39697,59.99637],[31.3964,59.99792],[31.39219,60.0033],[31.3901,60.00461],[31.3862,60.00532],[31.3638,60.0055],[31.35885,60.00422],[31.35573,60.00208],[31.35384,60.0001],[31.35163,59.99625],[31.35104,59.99271],[31.35124,59.98021],[31.35035,59.97187],[31.35052,59.96771],[31.35182,59.96271],[31.35312,59.96146],[31.35521,59.96146],[31.35903,59.96458]],[[31.39658,60.12146],[31.39062,60.12563],[31.38646,60.12646],[31.38437,60.12604],[31.37569,60.12188],[31.375,60.12109],[31.375,60.12023],[31.37865,60.11719],[31.38437,60.11406],[31.38854,60.11354],[31.39271,60.1151],[31.39554,60.11719],[31.39658,60.11927],[31.39658,60.12146]]]}},{"type":"Feature","properties":{"depth_m":4,"name":"Изобата 4 м (модель GLDB, ~1 км)","source":"GLDBv2 Global Lake Database v2 (Kourzeneva & Choulga; FLake, IGB Berlin) — GlobalLakeDepth.dat, 30″; Ladoga local depths digitised from maps (Hydrometcentre St Petersburg)","source_url":"http://www.flake.igb-berlin.de/site/external-dataset","license":"CC BY (Choulga et al. 2019, Adv. Sci. Res. 16:57, data availability); cite Kourzeneva et al. 2012 Tellus A 64:15640 and Choulga et al. 2014 Tellus A 66:21295","attribution":"Изобаты: GLDB v2 (Kourzeneva, Choulga), CC BY","accuracy_note":"Грубая модель: сетка 30″ (~0.46×0.93 км), сглажено; положение изобат ±0.5–1 км, у берега и на банках не точна. Не для навигации.","derived_by":"ladoga-fishing-map research agent 'depth' (skimage find_contours + Chaikin smoothing), 2026-09-22"},"geometry":{"type":"MultiLineString","coordinates":[[[32.80687,60.8],[32.80712,60.79688],[32.80585,60.7888],[32.80242,60.77786],[32.80177,60.76562],[32.80114,60.76146],[32.79828,60.75357],[32.79465,60.74576],[32.79274,60.73854],[32.79276,60.73229],[32.7941,60.72604],[32.7958,60.72187],[32.79875,60.71771],[32.80382,60.71237],[32.81394,60.70553],[32.81915,60.70291],[32.86146,60.69116],[32.86979,60.68776],[32.87604,60.68371],[32.88021,60.68162],[32.89479,60.67897],[32.90521,60.6725],[32.91354,60.66981],[32.92197,60.66399],[32.93201,60.65561],[32.93513,60.65193],[32.93837,60.64673],[32.93837,60.64375],[32.93452,60.62813],[32.93142,60.6055],[32.93056,60.60278],[32.9268,60.59757],[32.92367,60.5949],[32.9125,60.58925],[32.90885,60.58657],[32.90286,60.58021],[32.89646,60.56953],[32.88802,60.56234],[32.87077,60.55573],[32.85372,60.54621],[32.8503,60.5449],[32.83034,60.53919],[32.82161,60.53721],[32.78854,60.53238],[32.75521,60.52983],[32.73021,60.52979],[32.71354,60.5313],[32.68875,60.53585],[32.67781,60.53897],[32.65469,60.54742],[32.63021,60.55173],[32.62396,60.55196],[32.61979,60.55077],[32.61354,60.54658],[32.58784,60.52677],[32.58133,60.52055],[32.57887,60.51667],[32.57735,60.51289],[32.57728,60.50938],[32.57788,60.50551],[32.58341,60.48866],[32.58802,60.48032],[32.59667,60.47232],[32.60449,60.46276],[32.60957,60.45859],[32.61406,60.45547],[32.62995,60.44675],[32.63854,60.4388],[32.64531,60.43409],[32.65307,60.42949],[32.65698,60.42604],[32.66198,60.42005],[32.66362,60.41484],[32.66491,60.40729],[32.66458,60.39896],[32.66312,60.39427],[32.65573,60.38683],[32.63854,60.37822],[32.62604,60.36696],[32.62187,60.36391],[32.61771,60.36295],[32.61562,60.36324],[32.61146,60.36443],[32.59714,60.37106],[32.5888,60.37178],[32.58594,60.37153],[32.58073,60.36968],[32.57674,60.36655],[32.57274,60.36186],[32.57079,60.35677],[32.5699,60.35278],[32.56818,60.33854],[32.56868,60.33229],[32.56979,60.32812],[32.57158,60.32552],[32.5768,60.31953],[32.58634,60.31146],[32.58996,60.30469],[32.59053,60.30104],[32.59034,60.29688],[32.58608,60.28229],[32.58548,60.27813],[32.58561,60.27396],[32.58646,60.26927],[32.58784,60.26615],[32.59085,60.26146],[32.59648,60.25469],[32.59939,60.24688],[32.59988,60.24271],[32.59967,60.23854],[32.59735,60.22077],[32.5965,60.21888],[32.59323,60.21445],[32.5901,60.21179],[32.5741,60.20467],[32.56073,60.19586],[32.54252,60.18849],[32.52622,60.17879],[32.51968,60.17667],[32.49479,60.17133],[32.46473,60.16146],[32.43713,60.15545],[32.41979,60.15029],[32.40937,60.14841],[32.39479,60.14678],[32.38646,60.14645],[32.36354,60.14877],[32.35104,60.1489],[32.34479,60.14831],[32.33021,60.14559],[32.31979,60.14474],[32.29896,60.14563],[32.29062,60.14732],[32.28437,60.14993],[32.27786,60.15365],[32.26875,60.16242],[32.25885,60.17036],[32.2441,60.17865],[32.23958,60.18177],[32.22214,60.19661],[32.21193,60.20885],[32.20339,60.21719],[32.19687,60.22188],[32.18281,60.22891],[32.1776,60.2349],[32.17109,60.24115],[32.15729,60.24844],[32.1526,60.25156],[32.15104,60.25391],[32.15156,60.25729],[32.15391,60.26146],[32.16111,60.26979],[32.16354,60.27396],[32.16458,60.27795],[32.16458,60.27969],[32.16354,60.28264],[32.16073,60.28733],[32.15667,60.29097],[32.15208,60.2941],[32.13229,60.30283],[32.12604,60.30443],[32.11354,60.30492],[32.09896,60.30417],[32.0974,60.30365],[32.09635,60.3026],[32.09583,60.30104],[32.09622,60.29479],[32.0974,60.2888],[32.09714,60.28594],[32.0944,60.28281],[32.08854,60.28008],[32.08437,60.27995],[32.06771,60.284],[32.06146,60.28501],[32.05312,60.28498],[32.04479,60.28403],[32.02865,60.28092],[32.02344,60.27904],[32.00677,60.27069],[31.98802,60.25958],[31.98021,60.25643],[31.96354,60.25439],[31.95312,60.25401],[31.94479,60.25315],[31.93646,60.25177],[31.92396,60.2487],[31.91771,60.24792],[31.90937,60.24839],[31.89062,60.25112],[31.88229,60.25327],[31.86979,60.25749],[31.85437,60.26161],[31.84062,60.26896],[31.82906,60.27726],[31.82396,60.27995],[31.81562,60.28255],[31.80312,60.2849],[31.79479,60.28757],[31.78854,60.28863],[31.78229,60.28889],[31.76771,60.2875],[31.74896,60.2875],[31.74271,60.28813],[31.73229,60.29073],[31.72812,60.29073],[31.72396,60.28906],[31.72091,60.2862],[31.71994,60.28438],[31.71674,60.27217],[31.7151,60.26949],[31.70677,60.2626],[31.69062,60.25573],[31.68646,60.25313],[31.67945,60.2474],[31.67417,60.24063],[31.66615,60.22858],[31.66136,60.22273],[31.65476,60.21719],[31.64653,60.2117],[31.63037,60.19544],[31.61108,60.18789],[31.59479,60.17891],[31.57274,60.17081],[31.55475,60.16235],[31.53656,60.15491],[31.52656,60.14697],[31.52594,60.14588],[31.52594,60.14271],[31.52812,60.13672],[31.5362,60.12813],[31.5401,60.12292],[31.54062,60.1204],[31.5401,60.11927],[31.53344,60.11217],[31.52396,60.10612],[31.51979,60.10434],[31.51354,60.10354],[31.49687,60.10408],[31.47604,60.10208],[31.46354,60.10039],[31.45937,60.10078],[31.45562,60.10182],[31.45354,60.10286],[31.45,60.10625],[31.44323,60.11146],[31.43776,60.11468],[31.4224,60.12232],[31.41406,60.12919],[31.41055,60.13516],[31.39732,60.16389],[31.3941,60.16794],[31.38889,60.17292],[31.38617,60.17431],[31.38229,60.17534],[31.37187,60.1765],[31.36562,60.17813],[31.36354,60.17812],[31.36146,60.17743],[31.35937,60.17604],[31.35558,60.17188],[31.35327,60.16771],[31.35186,60.16146],[31.35153,60.15521],[31.35235,60.14479],[31.35177,60.13867],[31.34974,60.13516],[31.34453,60.12995],[31.33229,60.12144],[31.32995,60.1191],[31.32786,60.11458],[31.32578,60.10729],[31.32565,60.10557],[31.32656,60.10323],[31.32891,60.10224],[31.33047,60.10215],[31.34271,60.10388],[31.35937,60.10475],[31.38437,60.10332],[31.39062,60.10227],[31.39687,60.10004],[31.40521,60.09545],[31.41146,60.09267],[31.41979,60.09005],[31.43047,60.08771],[31.43516,60.08576],[31.43845,60.08385],[31.44539,60.07865],[31.4599,60.07063],[31.4635,60.06771],[31.47096,60.06029],[31.48562,60.05243],[31.49271,60.04661],[31.49556,60.04219],[31.50108,60.02852],[31.50367,60.02396],[31.50521,60.02214],[31.51597,60.01406],[31.51701,60.01276],[31.51806,60.00938],[31.51719,59.99896],[31.51597,59.99479],[31.51406,59.99063],[31.5112,59.9875],[31.50937,59.98646],[31.50521,59.98524],[31.49687,59.98455],[31.49271,59.98368],[31.47187,59.97721],[31.45937,59.97214],[31.43854,59.96706],[31.43021,59.96654],[31.41979,59.96484],[31.39722,59.96693],[31.39479,59.96823],[31.3941,59.96927],[31.39375,59.97031],[31.3941,59.9724],[31.39844,59.97859],[31.40573,59.98438],[31.4099,59.98984],[31.41308,59.99505],[31.41308,59.99688],[31.41146,60.00208],[31.40969,60.00478],[31.40667,60.00737],[31.40302,60.00949],[31.39479,60.01221],[31.36562,60.01721],[31.35729,60.01743],[31.35312,60.01666],[31.34727,60.01443],[31.34453,60.01302],[31.34271,60.01102],[31.33841,60.00521],[31.3349,59.99896],[31.33333,59.99479],[31.3309,59.98438],[31.32917,59.9803],[31.32604,59.97656],[31.31927,59.9717],[31.30937,59.96947],[31.29687,59.96788],[31.28854,59.9674],[31.27396,59.96849],[31.26354,59.97044],[31.25729,59.97083],[31.25312,59.96979],[31.24219,59.96292],[31.23437,59.95958],[31.23021,59.95813],[31.22604,59.9575],[31.22187,59.95771],[31.21771,59.95875],[31.19705,59.96716],[31.18924,59.97128],[31.18229,59.97388],[31.17187,59.977],[31.15521,59.98103],[31.14701,59.98365],[31.13958,59.98759],[31.13229,59.99333],[31.13086,59.9951],[31.13008,59.99698],[31.12995,59.99896],[31.13047,60.00104],[31.13229,60.00458],[31.14115,60.01318],[31.14948,60.02032],[31.16337,60.02882],[31.18047,60.04531],[31.18125,60.04731],[31.18168,60.05104],[31.1809,60.05479],[31.17057,60.06083],[31.16406,60.06354],[31.1612,60.06427],[31.15312,60.06491],[31.13021,60.06128],[31.12214,60.06125],[31.11823,60.06202],[31.10729,60.06602],[31.09896,60.06944],[31.0971,60.07066],[31.09546,60.07216],[31.09286,60.07604],[31.09137,60.08021],[31.09107,60.08437],[31.09216,60.09062],[31.09757,60.10375],[31.09835,60.10938],[31.09805,60.11254],[31.09687,60.11436],[31.08994,60.12075],[31.0792,60.12708],[31.07565,60.13046],[31.07067,60.13707],[31.0673,60.14271],[31.06434,60.14851],[31.05986,60.15938],[31.05697,60.16396],[31.05288,60.16688],[31.04479,60.17064],[31.01562,60.17626],[31.00482,60.17936],[30.98854,60.18862],[30.97965,60.19663],[30.97246,60.20559],[30.9615,60.22187],[30.94918,60.23643],[30.94552,60.24184],[30.94317,60.24711],[30.93906,60.26562],[30.93594,60.27396],[30.93073,60.28264],[30.9191,60.2947],[30.91329,60.30391],[30.9021,60.33229],[30.9,60.33636]],[[32.12021,60.40729],[32.11917,60.41146],[32.11729,60.41563],[32.1099,60.42682],[32.10573,60.43438],[32.10286,60.43815],[32.09896,60.44141],[32.09375,60.44453],[32.08924,60.446],[32.08646,60.44611],[32.08125,60.4441],[32.07862,60.44219],[32.07619,60.43958],[32.07473,60.43628],[32.07445,60.43438],[32.07471,60.43021],[32.0757,60.42604],[32.08311,60.40729],[32.08561,60.40278],[32.08745,60.40093],[32.09271,60.39822],[32.09687,60.39716],[32.10937,60.3974],[32.11354,60.39873],[32.11771,60.40167],[32.12,60.40531],[32.12021,60.40729]]]}},{"type":"Feature","properties":{"depth_m":6,"name":"Изобата 6 м (модель GLDB, ~1 км)","source":"GLDBv2 Global Lake Database v2 (Kourzeneva & Choulga; FLake, IGB Berlin) — GlobalLakeDepth.dat, 30″; Ladoga local depths digitised from maps (Hydrometcentre St Petersburg)","source_url":"http://www.flake.igb-berlin.de/site/external-dataset","license":"CC BY (Choulga et al. 2019, Adv. Sci. Res. 16:57, data availability); cite Kourzeneva et al. 2012 Tellus A 64:15640 and Choulga et al. 2014 Tellus A 66:21295","attribution":"Изобаты: GLDB v2 (Kourzeneva, Choulga), CC BY","accuracy_note":"Грубая модель: сетка 30″ (~0.46×0.93 км), сглажено; положение изобат ±0.5–1 км, у берега и на банках не точна. Не для навигации.","derived_by":"ladoga-fishing-map research agent 'depth' (skimage find_contours + Chaikin smoothing), 2026-09-22"},"geometry":{"type":"MultiLineString","coordinates":[[[32.80012,60.8],[32.80054,60.79688],[32.79989,60.79271],[32.7985,60.78878],[32.79439,60.78059],[32.79345,60.77784],[32.79194,60.76562],[32.79093,60.76146],[32.78457,60.74896],[32.7826,60.74271],[32.78272,60.73438],[32.78445,60.72604],[32.78655,60.72],[32.78952,60.71632],[32.79473,60.71125],[32.80993,60.70156],[32.81562,60.69865],[32.82674,60.69453],[32.8513,60.68738],[32.87474,60.67884],[32.89525,60.67064],[32.90823,60.66179],[32.91852,60.65278],[32.92225,60.64873],[32.92395,60.64618],[32.92506,60.64062],[32.92475,60.63438],[32.9215,60.61563],[32.91823,60.60729],[32.9151,60.60292],[32.90461,60.59543],[32.89896,60.59038],[32.89539,60.58642],[32.88767,60.57552],[32.88003,60.57061],[32.86979,60.56812],[32.86185,60.56522],[32.85404,60.56135],[32.84177,60.55392],[32.82187,60.54568],[32.79271,60.54402],[32.76771,60.54174],[32.75312,60.54091],[32.73646,60.54145],[32.69687,60.54431],[32.68698,60.54554],[32.66531,60.55378],[32.64271,60.55996],[32.63705,60.56213],[32.62396,60.56927],[32.61979,60.57057],[32.61562,60.57083],[32.61354,60.57031],[32.60937,60.56771],[32.60729,60.56562],[32.60399,60.56146],[32.59983,60.55339],[32.59491,60.54557],[32.58887,60.53783],[32.57591,60.52318],[32.57279,60.51828],[32.57042,60.51307],[32.5706,60.50339],[32.5738,60.48646],[32.57598,60.48056],[32.57743,60.47813],[32.58864,60.46831],[32.59397,60.46235],[32.60052,60.45378],[32.60547,60.44986],[32.61324,60.44603],[32.61984,60.43854],[32.62812,60.42743],[32.63854,60.41993],[32.64635,60.41354],[32.64896,60.40729],[32.64905,60.40352],[32.6474,60.40026],[32.64427,60.39714],[32.64115,60.39579],[32.62812,60.39239],[32.61458,60.3862],[32.60521,60.38435],[32.58646,60.38255],[32.56875,60.37906],[32.55729,60.37279],[32.55365,60.3696],[32.55069,60.36563],[32.54835,60.35938],[32.54826,60.35521],[32.54922,60.35104],[32.56028,60.32042],[32.56279,60.31552],[32.56983,60.30521],[32.57153,60.30104],[32.57236,60.29479],[32.57088,60.27813],[32.5714,60.26771],[32.57232,60.26354],[32.57386,60.25938],[32.58125,60.24594],[32.58244,60.24271],[32.58393,60.23438],[32.58331,60.22604],[32.5824,60.22224],[32.58112,60.2199],[32.56349,60.20885],[32.5559,60.20354],[32.53229,60.19285],[32.52083,60.1861],[32.48437,60.1773],[32.4651,60.17031],[32.44896,60.16529],[32.41979,60.15965],[32.39687,60.15729],[32.38854,60.15685],[32.36354,60.15852],[32.35104,60.15888],[32.32396,60.15765],[32.31979,60.15817],[32.3138,60.15982],[32.31094,60.16101],[32.30781,60.16313],[32.30052,60.1704],[32.2941,60.17813],[32.28177,60.18776],[32.27569,60.19375],[32.27344,60.19705],[32.27083,60.20286],[32.26944,60.20443],[32.26771,60.20573],[32.25729,60.21094],[32.25365,60.2138],[32.24948,60.21979],[32.24583,60.22813],[32.24271,60.23229],[32.23646,60.23802],[32.22812,60.2441],[32.22079,60.25156],[32.21484,60.25938],[32.21289,60.26354],[32.2125,60.26562],[32.2125,60.27604],[32.21198,60.27773],[32.21094,60.27904],[32.20937,60.27995],[32.19705,60.28383],[32.18854,60.28837],[32.17031,60.30352],[32.16016,60.31055],[32.15495,60.31293],[32.14479,60.31514],[32.0974,60.32111],[32.08872,60.32154],[32.08403,60.32115],[32.07917,60.32005],[32.07005,60.3161],[32.06406,60.31245],[32.05729,60.30667],[32.05312,60.30439],[32.04896,60.30352],[32.03229,60.30223],[32.01979,60.29955],[32.00469,60.2939],[31.98854,60.28676],[31.96406,60.2783],[31.95729,60.27641],[31.95104,60.27589],[31.93229,60.27872],[31.92187,60.2791],[31.91146,60.27786],[31.89687,60.27486],[31.88854,60.27426],[31.86354,60.27576],[31.85417,60.27781],[31.83854,60.28673],[31.83229,60.28973],[31.81427,60.29582],[31.79596,60.30339],[31.78984,60.30521],[31.78437,60.30617],[31.75937,60.30885],[31.73854,60.31248],[31.73021,60.31469],[31.72396,60.31458],[31.71979,60.31354],[31.71302,60.31019],[31.70729,60.3064],[31.70365,60.30298],[31.70069,60.29896],[31.69902,60.29479],[31.6985,60.28042],[31.69757,60.27729],[31.69453,60.27208],[31.69141,60.26913],[31.67932,60.26054],[31.6717,60.2536],[31.66629,60.24679],[31.66054,60.23757],[31.65485,60.23037],[31.65104,60.227],[31.64149,60.22034],[31.63385,60.21432],[31.63073,60.21116],[31.62637,60.20478],[31.62282,60.20136],[31.61391,60.19601],[31.60312,60.19185],[31.58837,60.18443],[31.57891,60.18051],[31.55937,60.17363],[31.5316,60.16068],[31.51536,60.15391],[31.50342,60.14612],[31.49635,60.13646],[31.48854,60.13235],[31.48437,60.13155],[31.46979,60.13062],[31.46146,60.13082],[31.45104,60.13299],[31.44531,60.13507],[31.4401,60.13764],[31.43062,60.14333],[31.42185,60.14913],[31.41941,60.15127],[31.41161,60.16042],[31.40451,60.17112],[31.39687,60.18134],[31.38906,60.18822],[31.38609,60.18994],[31.37187,60.19622],[31.36354,60.20301],[31.35937,60.20542],[31.35547,60.20667],[31.3526,60.20625],[31.34635,60.20115],[31.34115,60.19497],[31.33333,60.18229],[31.33065,60.17604],[31.3253,60.15729],[31.31927,60.14062],[31.31307,60.1125],[31.31181,60.10399],[31.3141,60.09792],[31.31599,60.09554],[31.31867,60.0937],[31.32204,60.09235],[31.32812,60.09123],[31.36354,60.09263],[31.38437,60.09157],[31.38854,60.09076],[31.39436,60.08873],[31.4053,60.08307],[31.41823,60.07886],[31.42318,60.07474],[31.42708,60.07044],[31.43142,60.06276],[31.43194,60.05729],[31.4309,60.0526],[31.4276,60.04844],[31.42448,60.0457],[31.41771,60.04141],[31.40243,60.02995],[31.39792,60.02786],[31.39462,60.02714],[31.38854,60.02677],[31.36354,60.0281],[31.35521,60.02807],[31.34687,60.02727],[31.34062,60.02584],[31.33646,60.02436],[31.33021,60.02127],[31.32396,60.01736],[31.31979,60.01589],[31.31562,60.01615],[31.31094,60.01823],[31.30477,60.02448],[31.30052,60.02969],[31.29635,60.03268],[31.29062,60.03464],[31.28646,60.03411],[31.28229,60.03151],[31.27917,60.02799],[31.27743,60.02396],[31.27431,60.01146],[31.2724,60.00729],[31.27109,60.00563],[31.26771,60.00354],[31.25937,60.0026],[31.24687,60.00266],[31.23646,60.00406],[31.22396,60.00417],[31.21979,60.00495],[31.21146,60.00807],[31.19687,60.00859],[31.19062,60.01094],[31.18932,60.01224],[31.1888,60.0138],[31.18906,60.01562],[31.1901,60.01771],[31.19323,60.0224],[31.20052,60.02922],[31.21128,60.03375],[31.21979,60.03815],[31.24453,60.04412],[31.24844,60.04531],[31.24896,60.04614],[31.24492,60.04896],[31.23958,60.05395],[31.22344,60.06539],[31.20729,60.07381],[31.19762,60.0809],[31.19062,60.08381],[31.18646,60.08487],[31.18021,60.08546],[31.15729,60.08548],[31.14479,60.0848],[31.13021,60.08243],[31.12604,60.08278],[31.12073,60.08465],[31.11875,60.08625],[31.11716,60.08885],[31.1125,60.10156],[31.1105,60.10938],[31.10764,60.1151],[31.10268,60.12081],[31.08717,60.12904],[31.08002,60.13715],[31.07396,60.14896],[31.06924,60.16208],[31.06285,60.17101],[31.05729,60.17398],[31.05104,60.17628],[31.03021,60.17946],[31.01771,60.18329],[31.01019,60.18676],[31.00289,60.19156],[30.99552,60.19549],[30.9887,60.2001],[30.98542,60.20292],[30.97825,60.21172],[30.96704,60.23016],[30.96198,60.23655],[30.95384,60.24555],[30.95031,60.25521],[30.94645,60.27188],[30.94213,60.28229],[30.93755,60.2901],[30.92859,60.29967],[30.92552,60.30358],[30.91452,60.32102],[30.91172,60.32633],[30.9059,60.33958],[30.9,60.35139]],[[30.9,60.60694],[30.90104,60.60725],[30.90677,60.6099],[30.90851,60.61094],[30.90937,60.61209],[30.90937,60.61336],[30.90851,60.61473],[30.90243,60.61994],[30.90052,60.62101],[30.9,60.62116]],[[32.13576,60.38906],[32.13819,60.39323],[32.13941,60.39714],[32.14028,60.40729],[32.13976,60.41292],[32.13083,60.42943],[32.12732,60.43724],[32.12148,60.44604],[32.11146,60.44954],[32.10104,60.45247],[32.0941,60.454],[32.08628,60.45471],[32.07448,60.45408],[32.06562,60.45221],[32.05937,60.44931],[32.05565,60.44635],[32.05372,60.44271],[32.05327,60.4388],[32.05342,60.43594],[32.05521,60.43073],[32.06571,60.41563],[32.07531,60.3972],[32.07716,60.39463],[32.08053,60.39187],[32.08854,60.3872],[32.09479,60.38469],[32.10729,60.38194],[32.11771,60.38051],[32.12396,60.38086],[32.12795,60.38197],[32.13125,60.38403],[32.13576,60.38906]]]}},{"type":"Feature","properties":{"depth_m":8,"name":"Изобата 8 м (модель GLDB, ~1 км)","source":"GLDBv2 Global Lake Database v2 (Kourzeneva & Choulga; FLake, IGB Berlin) — GlobalLakeDepth.dat, 30″; Ladoga local depths digitised from maps (Hydrometcentre St Petersburg)","source_url":"http://www.flake.igb-berlin.de/site/external-dataset","license":"CC BY (Choulga et al. 2019, Adv. Sci. Res. 16:57, data availability); cite Kourzeneva et al. 2012 Tellus A 64:15640 and Choulga et al. 2014 Tellus A 66:21295","attribution":"Изобаты: GLDB v2 (Kourzeneva, Choulga), CC BY","accuracy_note":"Грубая модель: сетка 30″ (~0.46×0.93 км), сглажено; положение изобат ±0.5–1 км, у берега и на банках не точна. Не для навигации.","derived_by":"ladoga-fishing-map research agent 'depth' (skimage find_contours + Chaikin smoothing), 2026-09-22"},"geometry":{"type":"MultiLineString","coordinates":[[[32.79296,60.8],[32.79354,60.79688],[32.7933,60.79479],[32.79159,60.79063],[32.78365,60.77788],[32.78006,60.76562],[32.77512,60.75521],[32.77336,60.74896],[32.77334,60.74271],[32.77595,60.73021],[32.77873,60.72031],[32.78191,60.7151],[32.78503,60.71133],[32.78872,60.70859],[32.80104,60.70064],[32.8124,60.69406],[32.81979,60.69095],[32.83477,60.68584],[32.84974,60.68006],[32.86354,60.67362],[32.88437,60.66581],[32.88981,60.66328],[32.89294,60.66055],[32.89757,60.65534],[32.90223,60.64687],[32.90342,60.64271],[32.90378,60.63646],[32.90312,60.63229],[32.90135,60.62813],[32.89656,60.62188],[32.88677,60.61146],[32.87979,60.60286],[32.87161,60.59453],[32.86224,60.58893],[32.85443,60.58628],[32.84542,60.58196],[32.83021,60.57169],[32.82396,60.56823],[32.81224,60.56365],[32.80286,60.56122],[32.78437,60.55845],[32.75521,60.55558],[32.75104,60.55569],[32.72604,60.55851],[32.71562,60.5588],[32.69687,60.55838],[32.68437,60.55961],[32.65729,60.56494],[32.65104,60.56676],[32.64444,60.56953],[32.62604,60.58064],[32.60604,60.58892],[32.59618,60.59623],[32.58885,60.59804],[32.5874,60.59796],[32.58542,60.59687],[32.58372,60.59444],[32.58199,60.59062],[32.58063,60.58437],[32.58102,60.57812],[32.58365,60.56771],[32.58498,60.55938],[32.58519,60.55521],[32.5844,60.54896],[32.58303,60.54479],[32.57968,60.53854],[32.57438,60.53053],[32.56845,60.52274],[32.56482,60.51562],[32.5636,60.51146],[32.56303,60.50521],[32.56388,60.48854],[32.56476,60.48229],[32.56736,60.47604],[32.57205,60.47005],[32.58011,60.46302],[32.58353,60.45521],[32.58698,60.4441],[32.59844,60.42927],[32.6033,60.42188],[32.6059,60.41563],[32.60625,60.41354],[32.6059,60.40938],[32.60521,60.40729],[32.60278,60.40335],[32.59406,60.39592],[32.58635,60.39334],[32.57187,60.38965],[32.54687,60.38512],[32.53229,60.38301],[32.52083,60.38027],[32.51719,60.37835],[32.51242,60.37403],[32.51062,60.37098],[32.51004,60.36771],[32.51012,60.36146],[32.51219,60.35313],[32.5217,60.33828],[32.52656,60.33229],[32.5303,60.32865],[32.53743,60.32344],[32.53975,60.32083],[32.54525,60.31172],[32.55306,60.29557],[32.55522,60.2862],[32.55652,60.27604],[32.5568,60.24896],[32.5559,60.24271],[32.55434,60.23854],[32.55208,60.23438],[32.54523,60.22448],[32.54115,60.2207],[32.53021,60.21346],[32.52396,60.21042],[32.51562,60.20813],[32.51146,60.20776],[32.49687,60.20825],[32.49062,60.20747],[32.48542,60.2059],[32.48177,60.20395],[32.47943,60.20208],[32.46906,60.18763],[32.46323,60.18385],[32.45521,60.17983],[32.43021,60.173],[32.41979,60.17095],[32.40104,60.17017],[32.38724,60.17027],[32.37943,60.17179],[32.37208,60.17465],[32.36771,60.1776],[32.35719,60.18771],[32.35281,60.19089],[32.34427,60.19497],[32.32812,60.2006],[32.32396,60.2026],[32.31979,60.20547],[32.31369,60.21146],[32.30565,60.22161],[32.29725,60.22904],[32.28021,60.24635],[32.26771,60.2564],[32.25677,60.26375],[32.25104,60.26896],[32.24792,60.27292],[32.23899,60.28854],[32.23021,60.29757],[32.22778,60.29948],[32.22187,60.30335],[32.21562,60.3064],[32.18906,60.31315],[32.1694,60.32247],[32.15937,60.32602],[32.15104,60.32738],[32.12396,60.32975],[32.10521,60.33055],[32.08021,60.33052],[32.05729,60.32948],[32.02021,60.32127],[31.99453,60.31017],[31.98437,60.30694],[31.96562,60.30456],[31.95104,60.30372],[31.92396,60.30039],[31.91562,60.2987],[31.90417,60.29497],[31.89062,60.2919],[31.88646,60.29132],[31.88021,60.29126],[31.86354,60.293],[31.8543,60.29497],[31.83229,60.30303],[31.80885,60.3123],[31.77396,60.32257],[31.74479,60.33409],[31.73576,60.33715],[31.72795,60.33862],[31.72031,60.33847],[31.71354,60.33692],[31.69792,60.32905],[31.68333,60.315],[31.68094,60.31135],[31.67979,60.30729],[31.67917,60.29896],[31.67986,60.28724],[31.67872,60.28177],[31.67775,60.27943],[31.67351,60.27396],[31.66203,60.26146],[31.65312,60.24688],[31.64833,60.24063],[31.64271,60.23494],[31.63634,60.22973],[31.61944,60.21777],[31.60844,60.21179],[31.58837,60.19559],[31.57187,60.18799],[31.54479,60.17864],[31.53668,60.17476],[31.52961,60.17046],[31.51354,60.16311],[31.48828,60.15365],[31.48229,60.15281],[31.47396,60.1525],[31.45729,60.15382],[31.45104,60.15495],[31.43229,60.15964],[31.42783,60.1612],[31.42262,60.16439],[31.41915,60.16752],[31.40481,60.18646],[31.39609,60.19627],[31.38307,60.20604],[31.37483,60.21327],[31.36998,60.21888],[31.36278,60.22957],[31.35729,60.23221],[31.35104,60.23353],[31.34271,60.23247],[31.33403,60.22986],[31.33292,60.22899],[31.33153,60.22604],[31.32911,60.21354],[31.32693,60.20937],[31.32046,60.2001],[31.31753,60.19458],[31.31424,60.18698],[31.30955,60.17396],[31.30482,60.16354],[31.30286,60.15729],[31.30217,60.15104],[31.30351,60.13229],[31.30353,60.11979],[31.30259,60.10521],[31.30301,60.10104],[31.30434,60.09693],[31.30729,60.09306],[31.31319,60.08808],[31.3184,60.08522],[31.32396,60.0832],[31.34062,60.08028],[31.34687,60.07869],[31.35521,60.07552],[31.36424,60.07135],[31.36583,60.06936],[31.36771,60.06562],[31.36828,60.06354],[31.36823,60.05938],[31.36687,60.05547],[31.3651,60.0526],[31.36276,60.05052],[31.35937,60.04844],[31.35521,60.04661],[31.35104,60.04583],[31.32604,60.04759],[31.30521,60.05138],[31.29062,60.05295],[31.26146,60.0587],[31.25402,60.06099],[31.24881,60.06346],[31.22857,60.07641],[31.20742,60.08854],[31.19896,60.09222],[31.19271,60.09395],[31.18646,60.0949],[31.16562,60.09566],[31.15521,60.09708],[31.14479,60.09964],[31.13073,60.10521],[31.12804,60.10698],[31.12118,60.11302],[31.11346,60.12222],[31.0967,60.1326],[31.0901,60.138],[31.0862,60.14427],[31.07937,60.16146],[31.07604,60.16771],[31.07208,60.17292],[31.06328,60.18021],[31.05729,60.18316],[31.05312,60.18462],[31.03854,60.18743],[31.03229,60.18945],[31.02604,60.19258],[31.01177,60.20137],[31.00479,60.2046],[30.99694,60.20742],[30.98815,60.21289],[30.98507,60.2181],[30.97957,60.22956],[30.97636,60.23477],[30.97228,60.24063],[30.96677,60.24719],[30.9633,60.25313],[30.96108,60.25938],[30.95682,60.27786],[30.95275,60.28724],[30.94884,60.29438],[30.94725,60.2965],[30.93718,60.30513],[30.92958,60.31324],[30.92109,60.32359],[30.9171,60.33039],[30.90339,60.36146],[30.90089,60.36563],[30.9,60.36694]],[[30.9,60.59787],[30.91146,60.59875],[30.92396,60.60078],[30.93104,60.60286],[30.93326,60.6043],[30.93437,60.60729],[30.93427,60.61125],[30.93264,60.61438],[30.92685,60.61958],[30.92373,60.62161],[30.91956,60.62333],[30.9033,60.629],[30.9,60.62995]],[[31.26424,60.40461],[31.26111,60.40528],[31.25556,60.40528],[31.25243,60.40461],[31.25208,60.40346],[31.25312,60.40156],[31.25556,60.39948],[31.25937,60.3974],[31.26111,60.39714],[31.2625,60.39766],[31.26354,60.39896],[31.26458,60.40268],[31.26424,60.40461]],[[32.19135,60.35729],[32.19078,60.36146],[32.18875,60.36771],[32.18281,60.37813],[32.18021,60.38438],[32.17934,60.38854],[32.17917,60.40104],[32.17865,60.40286],[32.17604,60.40573],[32.17057,60.40885],[32.16615,60.41246],[32.16142,60.41496],[32.15404,60.42225],[32.15069,60.42649],[32.14844,60.43028],[32.14375,60.44455],[32.14271,60.44616],[32.13984,60.44867],[32.13229,60.45275],[32.12187,60.4561],[32.10312,60.45949],[32.08854,60.4611],[32.06562,60.4619],[32.05937,60.46152],[32.05312,60.45971],[32.04543,60.45445],[32.04316,60.44896],[32.04174,60.44271],[32.0417,60.43646],[32.04332,60.42871],[32.04661,60.42279],[32.05599,60.40938],[32.06341,60.39557],[32.07513,60.37976],[32.07643,60.37604],[32.07839,60.36563],[32.0793,60.3638],[32.08229,60.36094],[32.08854,60.35833],[32.09479,60.3572],[32.12187,60.35685],[32.14896,60.35556],[32.16354,60.35391],[32.17812,60.35047],[32.18229,60.35],[32.1862,60.35026],[32.18906,60.35156],[32.19083,60.35391],[32.19135,60.35729]]]}},{"type":"Feature","properties":{"depth_m":10,"name":"Изобата 10 м (модель GLDB, ~1 км)","source":"GLDBv2 Global Lake Database v2 (Kourzeneva & Choulga; FLake, IGB Berlin) — GlobalLakeDepth.dat, 30″; Ladoga local depths digitised from maps (Hydrometcentre St Petersburg)","source_url":"http://www.flake.igb-berlin.de/site/external-dataset","license":"CC BY (Choulga et al. 2019, Adv. Sci. Res. 16:57, data availability); cite Kourzeneva et al. 2012 Tellus A 64:15640 and Choulga et al. 2014 Tellus A 66:21295","attribution":"Изобаты: GLDB v2 (Kourzeneva, Choulga), CC BY","accuracy_note":"Грубая модель: сетка 30″ (~0.46×0.93 км), сглажено; положение изобат ±0.5–1 км, у берега и на банках не точна. Не для навигации.","derived_by":"ladoga-fishing-map research agent 'depth' (skimage find_contours + Chaikin smoothing), 2026-09-22"},"geometry":{"type":"MultiLineString","coordinates":[[[32.78161,60.8],[32.78295,60.79861],[32.78371,60.7967],[32.78371,60.79473],[32.78295,60.79271],[32.77406,60.78043],[32.76963,60.77217],[32.76362,60.76354],[32.76163,60.75729],[32.76163,60.7526],[32.76345,60.74609],[32.76844,60.73229],[32.77163,60.72083],[32.77476,60.71381],[32.77768,60.71002],[32.78398,60.70487],[32.80361,60.69219],[32.81771,60.68502],[32.83307,60.67846],[32.86424,60.65479],[32.86658,60.65104],[32.8681,60.64687],[32.86875,60.64271],[32.86849,60.63854],[32.86719,60.63438],[32.86445,60.6293],[32.85359,60.61615],[32.84115,60.60391],[32.82604,60.59405],[32.81562,60.58884],[32.79687,60.58274],[32.77812,60.57911],[32.75521,60.57653],[32.72812,60.57484],[32.70312,60.57191],[32.69062,60.57103],[32.68021,60.57129],[32.66354,60.57309],[32.65521,60.5747],[32.64555,60.57886],[32.63507,60.58536],[32.61441,60.59589],[32.60359,60.60393],[32.59861,60.60694],[32.59473,60.60867],[32.59062,60.60974],[32.58646,60.60965],[32.58229,60.60825],[32.57821,60.6059],[32.57499,60.60104],[32.57175,60.59396],[32.56995,60.5876],[32.56947,60.58229],[32.56986,60.57729],[32.57412,60.56354],[32.57535,60.55729],[32.57552,60.55104],[32.57492,60.54688],[32.57359,60.54271],[32.57108,60.53728],[32.56098,60.52229],[32.55717,60.51354],[32.55525,60.50313],[32.55371,60.48776],[32.55359,60.48229],[32.55379,60.47813],[32.55578,60.47135],[32.56203,60.46222],[32.57036,60.45365],[32.5756,60.44062],[32.57827,60.43229],[32.58069,60.42188],[32.58116,60.41563],[32.58047,60.41094],[32.57743,60.40573],[32.57552,60.4038],[32.56962,60.40034],[32.56224,60.39711],[32.55443,60.3951],[32.52604,60.39215],[32.50937,60.38889],[32.50521,60.38757],[32.50104,60.38542],[32.49604,60.38177],[32.49479,60.38021],[32.49458,60.37917],[32.49631,60.36389],[32.49479,60.35295],[32.49531,60.34896],[32.49609,60.34687],[32.49896,60.34271],[32.50482,60.33646],[32.51172,60.3276],[32.52409,60.31445],[32.5263,60.31126],[32.52871,60.30521],[32.53343,60.28854],[32.53393,60.28229],[32.53304,60.27844],[32.5292,60.2726],[32.52203,60.26354],[32.52021,60.25938],[32.51841,60.25313],[32.51448,60.24596],[32.50495,60.23646],[32.49714,60.23146],[32.49219,60.22937],[32.48021,60.22665],[32.4526,60.22158],[32.43437,60.2151],[32.43073,60.21276],[32.42969,60.2112],[32.42865,60.20521],[32.42604,60.20104],[32.41979,60.19542],[32.41562,60.19271],[32.41146,60.19078],[32.3974,60.18692],[32.39062,60.18663],[32.38646,60.18719],[32.37656,60.19449],[32.36875,60.20292],[32.36437,60.2064],[32.35286,60.21215],[32.3375,60.22281],[32.32292,60.23125],[32.32024,60.23323],[32.3129,60.24052],[32.30312,60.25243],[32.29661,60.25885],[32.29115,60.26311],[32.2849,60.26927],[32.26966,60.28854],[32.25531,60.30313],[32.24687,60.31312],[32.23646,60.32198],[32.23073,60.32812],[32.22969,60.33021],[32.22917,60.33437],[32.22969,60.33854],[32.23125,60.34453],[32.2309,60.3474],[32.22091,60.36354],[32.2175,60.37813],[32.2099,60.39271],[32.20469,60.40456],[32.1974,60.41309],[32.18616,60.41972],[32.17216,60.42607],[32.16852,60.42821],[32.16649,60.43057],[32.16424,60.43438],[32.15966,60.44687],[32.15473,60.45503],[32.14479,60.45965],[32.1309,60.46264],[32.08646,60.46863],[32.06354,60.47024],[32.05521,60.46992],[32.04687,60.46812],[32.04271,60.46628],[32.03685,60.46281],[32.03364,60.45729],[32.03202,60.45312],[32.0308,60.44479],[32.03044,60.43646],[32.03106,60.43021],[32.03237,60.42604],[32.03576,60.41905],[32.04479,60.40292],[32.05532,60.38073],[32.05637,60.37604],[32.05863,60.35729],[32.05814,60.35352],[32.05493,60.34896],[32.05156,60.34612],[32.01962,60.33543],[32.01198,60.33209],[32.0059,60.32869],[31.99479,60.32392],[31.98437,60.3219],[31.97812,60.32172],[31.97187,60.32226],[31.95312,60.32488],[31.94705,60.32651],[31.93924,60.32945],[31.93437,60.33049],[31.92604,60.33172],[31.91979,60.33189],[31.9138,60.33098],[31.9099,60.32979],[31.90286,60.32533],[31.88802,60.31849],[31.86771,60.31337],[31.85729,60.3125],[31.85104,60.31367],[31.83646,60.31912],[31.81979,60.32345],[31.78229,60.33507],[31.77812,60.33663],[31.76042,60.34527],[31.75604,60.34658],[31.73437,60.34922],[31.72396,60.34991],[31.71771,60.34961],[31.70729,60.34831],[31.69453,60.34604],[31.68815,60.34323],[31.68021,60.33809],[31.67031,60.32982],[31.66094,60.32315],[31.65781,60.3195],[31.65573,60.31562],[31.65526,60.31354],[31.65604,60.30938],[31.65932,60.30313],[31.66113,60.29688],[31.66103,60.29063],[31.659,60.28438],[31.63634,60.24688],[31.62014,60.22973],[31.61521,60.22578],[31.61031,60.22266],[31.60104,60.21837],[31.59479,60.21617],[31.57991,60.21205],[31.57225,60.20444],[31.56935,60.20226],[31.56094,60.19699],[31.55443,60.19477],[31.53229,60.19286],[31.52396,60.19328],[31.51979,60.19453],[31.50781,60.20346],[31.50417,60.20528],[31.49896,60.20685],[31.49479,60.20731],[31.4875,60.20595],[31.48385,60.20305],[31.47852,60.19646],[31.47617,60.19062],[31.47161,60.17656],[31.4694,60.17448],[31.46562,60.1724],[31.45937,60.17083],[31.45104,60.17161],[31.43229,60.17645],[31.42812,60.17801],[31.42292,60.18148],[31.41953,60.18461],[31.41155,60.19514],[31.40385,60.20365],[31.38636,60.21875],[31.3776,60.22929],[31.37049,60.23703],[31.36528,60.24028],[31.3614,60.24212],[31.35521,60.24397],[31.34115,60.24599],[31.33021,60.24884],[31.32604,60.24885],[31.32109,60.24762],[31.3151,60.24063],[31.31241,60.23646],[31.31024,60.23021],[31.3092,60.21771],[31.30764,60.21177],[31.30318,60.20396],[31.29263,60.18031],[31.28146,60.1638],[31.2783,60.15573],[31.2783,60.15104],[31.28002,60.14479],[31.28344,60.1388],[31.28764,60.13281],[31.29008,60.12604],[31.29157,60.11771],[31.29198,60.10104],[31.29307,60.09531],[31.29687,60.08854],[31.30292,60.08021],[31.30417,60.07604],[31.30417,60.07396],[31.3026,60.07068],[31.29896,60.0686],[31.29271,60.06704],[31.28437,60.06709],[31.26187,60.07043],[31.24896,60.07729],[31.22795,60.09219],[31.21354,60.10026],[31.20312,60.10501],[31.19479,60.1099],[31.19062,60.11146],[31.18646,60.11233],[31.18021,60.1126],[31.17187,60.11385],[31.16354,60.11427],[31.15729,60.11521],[31.15104,60.11719],[31.13802,60.12321],[31.13034,60.12545],[31.12682,60.12693],[31.1207,60.13058],[31.1033,60.14539],[31.09687,60.15313],[31.09115,60.16296],[31.08162,60.17604],[31.07604,60.18229],[31.06979,60.18802],[31.06365,60.19219],[31.05521,60.19618],[31.04271,60.20312],[31.02839,60.21185],[31.00885,60.22138],[30.99702,60.22875],[30.9936,60.23229],[30.98576,60.24396],[30.98475,60.24708],[30.98423,60.25104],[30.98527,60.25651],[30.98735,60.25938],[30.98884,60.26042],[30.99479,60.26203],[30.99896,60.26205],[31.01146,60.26004],[31.01562,60.25983],[31.01958,60.2601],[31.02396,60.26156],[31.02592,60.26391],[31.02664,60.26562],[31.02719,60.26979],[31.02569,60.27396],[31.02206,60.27877],[31.01934,60.28037],[31.00156,60.28698],[30.97812,60.29189],[30.96458,60.29714],[30.95729,60.30108],[30.94839,60.3071],[30.93802,60.31594],[30.92795,60.32674],[30.92419,60.33229],[30.92101,60.33815],[30.91406,60.35604],[30.9109,60.3624],[30.90526,60.37173],[30.9,60.37808]],[[30.9,60.59097],[30.92812,60.59074],[30.94896,60.59156],[30.95458,60.59286],[30.95729,60.59449],[30.95883,60.59717],[30.95908,60.60104],[30.95812,60.60486],[30.9572,60.6066],[30.9524,60.61243],[30.94062,60.62093],[30.92656,60.62842],[30.92109,60.63048],[30.9,60.63659]],[[31.12257,60.20729],[31.12187,60.20937],[31.12118,60.21042],[31.12049,60.21042],[31.11979,60.20937],[31.11875,60.2056],[31.1191,60.20339],[31.11979,60.20286],[31.12118,60.2026],[31.12257,60.20339],[31.12292,60.2043],[31.12257,60.20729]],[[31.12569,60.22292],[31.12961,60.22743],[31.13006,60.22917],[31.12991,60.23229],[31.12887,60.23616],[31.12604,60.23884],[31.12396,60.23973],[31.11979,60.24018],[31.11562,60.23884],[31.10937,60.23438],[31.10729,60.23229],[31.10625,60.23021],[31.10625,60.22813],[31.10729,60.22604],[31.11771,60.21562],[31.11944,60.21458],[31.12083,60.21458],[31.12187,60.21562],[31.12344,60.21962],[31.12569,60.22292]],[[31.3099,60.33229],[31.31224,60.33628],[31.3138,60.33802],[31.3207,60.34323],[31.32214,60.34479],[31.32292,60.34722],[31.32448,60.35938],[31.325,60.36111],[31.32656,60.36354],[31.33687,60.37135],[31.34687,60.37449],[31.3651,60.37869],[31.37214,60.38297],[31.3809,60.38698],[31.38738,60.39323],[31.38824,60.39479],[31.38824,60.39635],[31.38601,60.39766],[31.38021,60.39961],[31.36354,60.40404],[31.35521,60.40764],[31.35104,60.40885],[31.34479,60.40953],[31.32604,60.40938],[31.31354,60.41036],[31.29687,60.41242],[31.28854,60.4139],[31.26771,60.41963],[31.26146,60.42061],[31.25729,60.42049],[31.25312,60.41973],[31.23385,60.41264],[31.22943,60.41058],[31.22046,60.40441],[31.22035,60.39626],[31.22046,60.39564],[31.22124,60.39515],[31.23021,60.39093],[31.25521,60.38346],[31.26927,60.37805],[31.27995,60.37178],[31.28828,60.3651],[31.29505,60.36176],[31.30521,60.35836],[31.30937,60.35604],[31.31276,60.35292],[31.3151,60.34896],[31.31562,60.34687],[31.3151,60.34271],[31.31406,60.34062],[31.31276,60.33932],[31.3112,60.3388],[31.30937,60.33906],[31.30521,60.34086],[31.30104,60.34152],[31.29479,60.34073],[31.2879,60.33826],[31.28682,60.33711],[31.28498,60.33053],[31.2855,60.32796],[31.2863,60.32716],[31.28886,60.32587],[31.29271,60.32499],[31.29896,60.32541],[31.30677,60.32839],[31.3099,60.33229]]]}},{"type":"Feature","properties":{"depth_m":15,"name":"Изобата 15 м (модель GLDB, ~1 км)","source":"GLDBv2 Global Lake Database v2 (Kourzeneva & Choulga; FLake, IGB Berlin) — GlobalLakeDepth.dat, 30″; Ladoga local depths digitised from maps (Hydrometcentre St Petersburg)","source_url":"http://www.flake.igb-berlin.de/site/external-dataset","license":"CC BY (Choulga et al. 2019, Adv. Sci. Res. 16:57, data availability); cite Kourzeneva et al. 2012 Tellus A 64:15640 and Choulga et al. 2014 Tellus A 66:21295","attribution":"Изобаты: GLDB v2 (Kourzeneva, Choulga), CC BY","accuracy_note":"Грубая модель: сетка 30″ (~0.46×0.93 км), сглажено; положение изобат ±0.5–1 км, у берега и на банках не точна. Не для навигации.","derived_by":"ladoga-fishing-map research agent 'depth' (skimage find_contours + Chaikin smoothing), 2026-09-22"},"geometry":{"type":"MultiLineString","coordinates":[[[32.71058,60.8],[32.70937,60.79931],[32.70369,60.79462],[32.69984,60.78854],[32.69915,60.78646],[32.69871,60.78229],[32.69967,60.77844],[32.70069,60.77667],[32.70547,60.77146],[32.71185,60.76827],[32.72271,60.76414],[32.72615,60.76141],[32.72939,60.75521],[32.73208,60.74479],[32.73556,60.7375],[32.73763,60.7349],[32.7445,60.72969],[32.74722,60.72604],[32.75209,60.71224],[32.76101,60.69271],[32.76161,60.69062],[32.76153,60.68854],[32.75937,60.68438],[32.75312,60.67891],[32.74396,60.67344],[32.73958,60.66875],[32.73663,60.66354],[32.73461,60.65521],[32.73495,60.64896],[32.7362,60.64479],[32.73893,60.64219],[32.74687,60.63628],[32.75104,60.63229],[32.75234,60.63021],[32.75286,60.62813],[32.7526,60.62604],[32.75156,60.62396],[32.74844,60.61979],[32.73854,60.61344],[32.73437,60.61187],[32.71979,60.60833],[32.70937,60.6075],[32.66562,60.6075],[32.66146,60.60792],[32.65406,60.6101],[32.65115,60.6125],[32.64668,60.61979],[32.64309,60.63229],[32.63875,60.64097],[32.6349,60.64557],[32.63125,60.64844],[32.62604,60.65156],[32.61354,60.65774],[32.60243,60.66205],[32.59792,60.66458],[32.59271,60.66583],[32.58698,60.66521],[32.58021,60.66176],[32.57158,60.65365],[32.55418,60.63219],[32.5529,60.62927],[32.55182,60.62396],[32.55125,60.61771],[32.5514,60.59896],[32.5498,60.58021],[32.55023,60.57604],[32.55466,60.55573],[32.55441,60.54549],[32.5503,60.5364],[32.53725,60.51278],[32.53338,60.50313],[32.5247,60.4864],[32.52273,60.48021],[32.52292,60.47604],[32.52426,60.47193],[32.52619,60.46806],[32.52954,60.46285],[32.53713,60.45382],[32.54208,60.4467],[32.54375,60.44062],[32.54307,60.43646],[32.54211,60.43438],[32.53824,60.42893],[32.52018,60.42311],[32.51458,60.42081],[32.49844,60.41172],[32.48419,60.40521],[32.4794,60.40198],[32.47267,60.39396],[32.46929,60.3876],[32.4675,60.38021],[32.46715,60.37604],[32.46732,60.36354],[32.4653,60.34896],[32.46595,60.34271],[32.47027,60.33021],[32.4717,60.32396],[32.4724,60.31562],[32.47187,60.30938],[32.47062,60.30521],[32.46771,60.30104],[32.45937,60.2936],[32.45208,60.28899],[32.43854,60.28291],[32.43229,60.28092],[32.42396,60.28003],[32.41979,60.28047],[32.41562,60.28156],[32.40937,60.28437],[32.38229,60.29941],[32.3625,60.31115],[32.3441,60.32027],[32.32961,60.32969],[32.31927,60.33576],[32.31289,60.3401],[32.30625,60.34601],[32.29392,60.36239],[32.28712,60.36804],[32.27829,60.37448],[32.26335,60.3887],[32.24453,60.40243],[32.23073,60.41442],[32.22123,60.42098],[32.20889,60.42789],[32.20577,60.43013],[32.19744,60.43906],[32.1883,60.45486],[32.18361,60.46147],[32.18061,60.46434],[32.17109,60.47104],[32.15729,60.47654],[32.14714,60.47863],[32.09271,60.48431],[32.05781,60.48741],[32.02604,60.49184],[32.00521,60.49406],[31.99896,60.49516],[31.99479,60.49528],[31.98885,60.49353],[31.9862,60.49122],[31.98459,60.4881],[31.98351,60.48438],[31.98299,60.48021],[31.98424,60.46771],[31.98356,60.46146],[31.97652,60.44656],[31.97052,60.43047],[31.96609,60.42042],[31.96198,60.41552],[31.95349,60.40844],[31.94052,60.3957],[31.9376,60.39363],[31.93038,60.38987],[31.92187,60.38692],[31.91146,60.38458],[31.8776,60.37964],[31.86354,60.37691],[31.85312,60.37433],[31.82812,60.37051],[31.80937,60.36615],[31.79271,60.36401],[31.76979,60.36381],[31.75729,60.36443],[31.74687,60.36596],[31.72812,60.36984],[31.71771,60.37083],[31.70937,60.37054],[31.69687,60.36932],[31.69062,60.3685],[31.68437,60.36707],[31.66771,60.36128],[31.65937,60.35753],[31.65377,60.35435],[31.64611,60.34725],[31.62965,60.32822],[31.61393,60.31328],[31.61172,60.30938],[31.60911,60.29896],[31.60677,60.29375],[31.60312,60.28924],[31.5941,60.28021],[31.58958,60.27708],[31.57448,60.27071],[31.56354,60.26763],[31.55312,60.2657],[31.54722,60.26406],[31.51979,60.25417],[31.48854,60.24949],[31.45937,60.24278],[31.45312,60.24217],[31.44557,60.24401],[31.43056,60.25143],[31.42656,60.25412],[31.42005,60.26076],[31.41615,60.26771],[31.41328,60.27604],[31.41328,60.28229],[31.41562,60.28854],[31.42018,60.2944],[31.42396,60.29661],[31.43854,60.30065],[31.44469,60.30391],[31.44833,60.30729],[31.4599,60.3224],[31.46458,60.32656],[31.47066,60.33094],[31.47292,60.33333],[31.47656,60.33812],[31.47982,60.34479],[31.47982,60.3474],[31.47869,60.3526],[31.47752,60.35547],[31.47244,60.36354],[31.4651,60.3708],[31.44708,60.38032],[31.44062,60.38507],[31.42894,60.39546],[31.42103,60.40457],[31.41562,60.40962],[31.38664,60.43365],[31.38059,60.43799],[31.36896,60.44435],[31.36375,60.44667],[31.35729,60.44821],[31.35312,60.44864],[31.34687,60.44838],[31.32604,60.44547],[31.31771,60.44483],[31.29687,60.44482],[31.26354,60.4457],[31.25729,60.44549],[31.25312,60.44482],[31.24479,60.44214],[31.23661,60.43854],[31.23,60.43414],[31.2242,60.4291],[31.20915,60.42021],[31.19658,60.41181],[31.19274,60.40486],[31.19236,60.40104],[31.19264,60.39896],[31.1941,60.39441],[31.20007,60.38695],[31.20635,60.3816],[31.21562,60.376],[31.24658,60.36271],[31.25475,60.35461],[31.25625,60.34896],[31.25668,60.34271],[31.2546,60.32604],[31.25391,60.31146],[31.25281,60.30521],[31.25052,60.29896],[31.24792,60.29479],[31.23927,60.28746],[31.22904,60.27656],[31.22396,60.27292],[31.22187,60.27214],[31.21979,60.27196],[31.21771,60.2724],[31.20729,60.2776],[31.20104,60.28006],[31.19479,60.28154],[31.18854,60.28215],[31.16354,60.28281],[31.13021,60.27936],[31.11979,60.27894],[31.11146,60.27801],[31.09687,60.27766],[31.09062,60.27854],[31.08437,60.28042],[31.0612,60.28966],[31.05417,60.29361],[31.04462,60.30052],[31.03021,60.30819],[31.02604,60.30988],[31.01979,60.31118],[30.99687,60.31087],[30.98698,60.31219],[30.97804,60.31753],[30.96354,60.32385],[30.95729,60.32729],[30.95224,60.33229],[30.94889,60.33854],[30.94295,60.35938],[30.93924,60.36771],[30.93623,60.37129],[30.92812,60.37721],[30.92092,60.38542],[30.91469,60.39453],[30.9112,60.4026],[30.91094,60.4043],[30.91172,60.40547],[30.9224,60.41076],[30.9285,60.41552],[30.92984,60.41771],[30.93065,60.42042],[30.93124,60.42798],[30.93061,60.4314],[30.9283,60.43661],[30.91523,60.45104],[30.91236,60.45521],[30.90784,60.46562],[30.90461,60.47181],[30.9,60.47663]],[[30.9,60.57386],[30.92812,60.57222],[30.95104,60.56985],[30.95729,60.56964],[30.97187,60.57116],[30.97812,60.57285],[30.98229,60.57487],[30.98777,60.57878],[30.98842,60.58815],[30.98719,60.59505],[30.98109,60.60553],[30.97493,60.61306],[30.9676,60.62038],[30.96303,60.62448],[30.95666,60.62921],[30.94896,60.63313],[30.93798,60.63777],[30.90657,60.6471],[30.9,60.65033]],[[31.585,60.22854],[31.58198,60.2295],[31.58094,60.23067],[31.57979,60.23438],[31.58,60.23612],[31.58083,60.23753],[31.58229,60.2386],[31.58646,60.23971],[31.59062,60.23934],[31.59271,60.2386],[31.59401,60.23753],[31.59453,60.23612],[31.59427,60.23438],[31.59115,60.2295],[31.58906,60.22854],[31.585,60.22854]],[[32.69839,60.66563],[32.69878,60.67188],[32.69729,60.67904],[32.69562,60.68115],[32.69062,60.68411],[32.68854,60.68495],[32.68437,60.68568],[32.68021,60.6851],[32.67604,60.68307],[32.67396,60.68151],[32.67135,60.67799],[32.67083,60.67604],[32.67101,60.67188],[32.67257,60.66563],[32.67569,60.66042],[32.68038,60.65677],[32.68437,60.65521],[32.68646,60.65495],[32.69062,60.65573],[32.6944,60.65781],[32.69661,60.6599],[32.69839,60.66563]]]}},{"type":"Feature","properties":{"depth_m":20,"name":"Изобата 20 м (модель GLDB, ~1 км)","source":"GLDBv2 Global Lake Database v2 (Kourzeneva & Choulga; FLake, IGB Berlin) — GlobalLakeDepth.dat, 30″; Ladoga local depths digitised from maps (Hydrometcentre St Petersburg)","source_url":"http://www.flake.igb-berlin.de/site/external-dataset","license":"CC BY (Choulga et al. 2019, Adv. Sci. Res. 16:57, data availability); cite Kourzeneva et al. 2012 Tellus A 64:15640 and Choulga et al. 2014 Tellus A 66:21295","attribution":"Изобаты: GLDB v2 (Kourzeneva, Choulga), CC BY","accuracy_note":"Грубая модель: сетка 30″ (~0.46×0.93 км), сглажено; положение изобат ±0.5–1 км, у берега и на банках не точна. Не для навигации.","derived_by":"ladoga-fishing-map research agent 'depth' (skimage find_contours + Chaikin smoothing), 2026-09-22"},"geometry":{"type":"MultiLineString","coordinates":[[[32.61976,60.8],[32.62178,60.79063],[32.6223,60.78438],[32.62197,60.77813],[32.61963,60.76354],[32.61723,60.75521],[32.61335,60.74613],[32.60719,60.73738],[32.60434,60.73471],[32.59622,60.72873],[32.56287,60.70998],[32.54771,60.70286],[32.52768,60.69625],[32.52176,60.69271],[32.51891,60.68932],[32.51793,60.68624],[32.51768,60.68229],[32.51824,60.67813],[32.51963,60.67396],[32.52363,60.66771],[32.53615,60.6541],[32.53739,60.65156],[32.53871,60.64635],[32.53728,60.62969],[32.53842,60.60521],[32.53756,60.58021],[32.53795,60.56146],[32.53713,60.55313],[32.53547,60.54688],[32.53041,60.5362],[32.51598,60.51153],[32.50339,60.48835],[32.49518,60.46979],[32.48698,60.45521],[32.47929,60.4474],[32.47333,60.44236],[32.46969,60.4401],[32.45937,60.43571],[32.45026,60.43051],[32.44714,60.42839],[32.44193,60.42318],[32.4388,60.41927],[32.43524,60.41276],[32.4342,60.40313],[32.4316,60.39604],[32.42396,60.39],[32.41979,60.38792],[32.41771,60.3875],[32.39062,60.3875],[32.38646,60.38789],[32.37396,60.39089],[32.36354,60.39505],[32.35937,60.39583],[32.35312,60.39521],[32.34271,60.39152],[32.33021,60.388],[32.32604,60.38781],[32.31979,60.38891],[32.31363,60.3913],[32.30816,60.39427],[32.29896,60.40167],[32.29271,60.40542],[32.27792,60.4117],[32.26146,60.41751],[32.25312,60.42184],[32.24441,60.42854],[32.23576,60.43665],[32.22795,60.44687],[32.20497,60.4712],[32.19557,60.47714],[32.1901,60.47972],[32.17604,60.48401],[32.16101,60.48734],[32.14271,60.49026],[32.11979,60.49466],[32.09687,60.49696],[32.08229,60.49947],[32.06935,60.50382],[32.05469,60.51287],[32.0474,60.51213],[32.03229,60.50946],[32.02187,60.50936],[32.01111,60.51167],[31.99479,60.51793],[31.98854,60.51927],[31.98437,60.51946],[31.97604,60.51858],[31.96562,60.51649],[31.95243,60.51274],[31.95167,60.5121],[31.94993,60.50938],[31.94839,60.50521],[31.94844,60.50104],[31.94953,60.49688],[31.95,60.49271],[31.94974,60.48854],[31.94844,60.48438],[31.93945,60.46771],[31.93513,60.45312],[31.93273,60.44717],[31.93034,60.4436],[31.92396,60.43929],[31.91979,60.43832],[31.91562,60.43924],[31.91,60.44236],[31.89687,60.45298],[31.89062,60.45532],[31.88594,60.45532],[31.88385,60.45425],[31.88073,60.45156],[31.87827,60.44844],[31.87716,60.44609],[31.87583,60.43854],[31.87618,60.42396],[31.87531,60.42073],[31.87431,60.41958],[31.87135,60.41789],[31.86354,60.41433],[31.85729,60.41295],[31.85312,60.41292],[31.82812,60.41856],[31.82187,60.41895],[31.81562,60.41813],[31.80937,60.41632],[31.80156,60.41319],[31.79979,60.41105],[31.79687,60.40313],[31.79281,60.3967],[31.79062,60.39479],[31.78792,60.39337],[31.77812,60.38955],[31.76562,60.3862],[31.75937,60.38528],[31.75104,60.38531],[31.73021,60.38737],[31.71771,60.38773],[31.69479,60.3864],[31.67604,60.38346],[31.66133,60.37985],[31.65462,60.3773],[31.64716,60.37376],[31.6392,60.36888],[31.62772,60.35963],[31.62057,60.35509],[31.61406,60.35369],[31.60729,60.35294],[31.58646,60.35236],[31.56562,60.35259],[31.55556,60.35336],[31.54635,60.35549],[31.52812,60.36222],[31.52437,60.36771],[31.5225,60.37188],[31.52146,60.37604],[31.52062,60.37764],[31.51937,60.37877],[31.51771,60.37941],[31.49896,60.38076],[31.49271,60.38185],[31.48646,60.38387],[31.45486,60.39635],[31.44529,60.40384],[31.42918,60.42319],[31.40445,60.44461],[31.39673,60.44979],[31.38916,60.45407],[31.37812,60.45841],[31.36328,60.46286],[31.34896,60.46479],[31.28854,60.46728],[31.26562,60.4673],[31.25729,60.46639],[31.24396,60.46312],[31.23021,60.46046],[31.22028,60.4572],[31.21602,60.45464],[31.21348,60.45231],[31.2092,60.44632],[31.20446,60.4373],[31.19616,60.42905],[31.18854,60.4265],[31.17396,60.42388],[31.17083,60.42288],[31.1691,60.42173],[31.16675,60.41771],[31.16441,60.41146],[31.16283,60.40521],[31.16192,60.39896],[31.16192,60.39271],[31.16267,60.38646],[31.16635,60.36563],[31.16583,60.36146],[31.16406,60.35729],[31.1612,60.35391],[31.15937,60.3526],[31.15104,60.34906],[31.13646,60.34571],[31.13021,60.34494],[31.12604,60.34509],[31.10521,60.34849],[31.08646,60.3533],[31.0691,60.36198],[31.0526,60.36935],[31.03167,60.38148],[31.02693,60.38461],[31.02106,60.38958],[31.00763,60.41276],[31.00052,60.42023],[30.99609,60.42325],[30.99062,60.42521],[30.98437,60.4263],[30.96367,60.42625],[30.96016,60.42721],[30.95495,60.42997],[30.95236,60.43309],[30.944,60.44583],[30.93009,60.46344],[30.92634,60.47026],[30.92104,60.48281],[30.91611,60.49006],[30.91181,60.49489],[30.9066,60.49915],[30.9,60.50341]],[[30.9,60.54419],[30.90135,60.5451],[30.91146,60.54949],[30.91979,60.55143],[30.92604,60.55154],[30.93021,60.55096],[30.94462,60.5472],[30.95312,60.54554],[30.96562,60.54446],[30.97812,60.54435],[30.98795,60.54538],[30.99563,60.55208],[30.9971,60.5543],[31.00026,60.56146],[31.00378,60.57208],[31.005,60.58042],[31.0045,60.59271],[31.00243,60.60104],[30.99931,60.60729],[30.99462,60.61334],[30.98676,60.62043],[30.96328,60.63845],[30.95355,60.64389],[30.94574,60.6464],[30.91979,60.65093],[30.91185,60.65367],[30.90502,60.65733],[30.9,60.66103]],[[31.16449,60.44062],[31.16468,60.44687],[31.16354,60.45104],[31.16111,60.45438],[31.15937,60.45563],[31.15521,60.45708],[31.15104,60.4566],[31.14719,60.45438],[31.14458,60.45104],[31.14333,60.44705],[31.14375,60.44375],[31.14732,60.43854],[31.15193,60.43424],[31.15357,60.43333],[31.15729,60.43268],[31.16103,60.4334],[31.16226,60.43405],[31.16345,60.43594],[31.16449,60.44062]]]}},{"type":"Feature","properties":{"depth_m":30,"name":"Изобата 30 м (модель GLDB, ~1 км)","source":"GLDBv2 Global Lake Database v2 (Kourzeneva & Choulga; FLake, IGB Berlin) — GlobalLakeDepth.dat, 30″; Ladoga local depths digitised from maps (Hydrometcentre St Petersburg)","source_url":"http://www.flake.igb-berlin.de/site/external-dataset","license":"CC BY (Choulga et al. 2019, Adv. Sci. Res. 16:57, data availability); cite Kourzeneva et al. 2012 Tellus A 64:15640 and Choulga et al. 2014 Tellus A 66:21295","attribution":"Изобаты: GLDB v2 (Kourzeneva, Choulga), CC BY","accuracy_note":"Грубая модель: сетка 30″ (~0.46×0.93 км), сглажено; положение изобат ±0.5–1 км, у берега и на банках не точна. Не для навигации.","derived_by":"ladoga-fishing-map research agent 'depth' (skimage find_contours + Chaikin smoothing), 2026-09-22"},"geometry":{"type":"MultiLineString","coordinates":[[[32.55626,60.8],[32.55464,60.79531],[32.54913,60.78704],[32.54193,60.77783],[32.5274,60.75433],[32.51287,60.7373],[32.50521,60.73029],[32.49237,60.72116],[32.4871,60.71671],[32.48442,60.7129],[32.48238,60.70729],[32.48188,60.70104],[32.48258,60.69687],[32.484,60.69271],[32.4871,60.68642],[32.49727,60.67211],[32.50105,60.66563],[32.50332,60.66121],[32.50728,60.65104],[32.50901,60.64479],[32.51102,60.63038],[32.51344,60.61944],[32.51446,60.61146],[32.51284,60.58594],[32.51178,60.57943],[32.50989,60.57396],[32.50402,60.5629],[32.49797,60.55413],[32.49497,60.55037],[32.48862,60.54397],[32.48021,60.53822],[32.46295,60.52869],[32.45521,60.5267],[32.45104,60.52696],[32.44531,60.52865],[32.43021,60.53676],[32.42396,60.53924],[32.41771,60.54028],[32.41367,60.5401],[32.41016,60.53924],[32.40495,60.53646],[32.39954,60.5299],[32.39796,60.52604],[32.39479,60.50729],[32.39167,60.50104],[32.38823,60.49727],[32.38437,60.49505],[32.37187,60.49284],[32.36146,60.48785],[32.34896,60.4875],[32.34479,60.48828],[32.33646,60.49156],[32.32604,60.49312],[32.28646,60.50122],[32.24479,60.51266],[32.22812,60.51645],[32.21979,60.5174],[32.21146,60.51769],[32.16146,60.5176],[32.15312,60.51825],[32.1349,60.52083],[32.12187,60.52418],[32.11062,60.52819],[32.09062,60.5342],[32.07396,60.54168],[32.06771,60.544],[32.05304,60.54752],[32.02396,60.54934],[31.99896,60.55284],[31.99062,60.55346],[31.98021,60.55354],[31.96354,60.55237],[31.95521,60.5523],[31.93229,60.55503],[31.91771,60.55595],[31.89062,60.55489],[31.85729,60.55598],[31.84271,60.55488],[31.82604,60.55213],[31.81771,60.54992],[31.8064,60.54511],[31.79544,60.53802],[31.78542,60.52907],[31.75521,60.49696],[31.74505,60.48837],[31.73047,60.47839],[31.72292,60.4707],[31.71615,60.46233],[31.70521,60.45477],[31.69479,60.4467],[31.68958,60.44435],[31.68437,60.44301],[31.67604,60.44226],[31.65729,60.44254],[31.62812,60.44798],[31.61771,60.44896],[31.54896,60.44861],[31.52604,60.44672],[31.49896,60.44667],[31.49271,60.44729],[31.48437,60.44967],[31.46146,60.45923],[31.45312,60.46322],[31.43839,60.47158],[31.42118,60.47856],[31.40937,60.48411],[31.39844,60.48795],[31.38854,60.49043],[31.38021,60.49153],[31.35521,60.49298],[31.32396,60.4933],[31.30937,60.49547],[31.29271,60.50029],[31.28611,60.50301],[31.26445,60.51413],[31.25729,60.51571],[31.25104,60.51473],[31.24896,60.51384],[31.24521,60.51116],[31.23969,60.50365],[31.23588,60.49444],[31.23106,60.48646],[31.22604,60.48326],[31.21979,60.48102],[31.20937,60.48085],[31.19687,60.48214],[31.19062,60.48328],[31.17597,60.4874],[31.16146,60.49358],[31.15312,60.49579],[31.14687,60.49628],[31.12812,60.49594],[31.11354,60.49699],[31.09687,60.499],[31.08646,60.49932],[31.07187,60.49863],[31.05547,60.49696],[31.04062,60.49371],[31.03437,60.4916],[31.01962,60.48406],[31.01146,60.48198],[30.99896,60.47743],[30.99705,60.47708],[30.99375,60.47743],[30.98854,60.4809],[30.98601,60.48542],[30.98437,60.49271],[30.98437,60.49458],[30.98527,60.49771],[30.98806,60.50115],[30.99219,60.50431],[31.00482,60.50897],[31.01172,60.51315],[31.01953,60.52069],[31.02443,60.52844],[31.0299,60.54062],[31.03281,60.54492],[31.04023,60.55391],[31.04258,60.55938],[31.04361,60.56354],[31.04388,60.57396],[31.04194,60.59271],[31.04186,60.59896],[31.04298,60.61146],[31.04557,60.62813],[31.04583,60.63438],[31.04451,60.63854],[31.04319,60.64062],[31.03898,60.64544],[31.02954,60.65485],[31.02396,60.65874],[31.02187,60.65944],[31.01979,60.65946],[31.01771,60.65878],[31.01399,60.65631],[31.00345,60.64833],[30.99792,60.64589],[30.99544,60.64539],[30.98958,60.64653],[30.98437,60.64905],[30.97786,60.65356],[30.96497,60.66641],[30.96135,60.66833],[30.95729,60.66866],[30.95312,60.66817],[30.92951,60.66242],[30.92172,60.6641],[30.91771,60.66607],[30.91134,60.6703],[30.90143,60.67907],[30.9,60.68049]],[[30.99034,60.6797],[30.98685,60.68024],[30.98437,60.6797],[30.98375,60.67881],[30.98562,60.67768],[30.98804,60.67738],[30.99091,60.67881],[30.99034,60.6797]],[[31.16927,60.62396],[31.1703,60.62813],[31.17047,60.63229],[31.1698,60.63646],[31.16753,60.64271],[31.16568,60.64603],[31.16386,60.64823],[31.15966,60.65135],[31.15464,60.65428],[31.14479,60.65474],[31.12885,60.65429],[31.12208,60.6499],[31.11927,60.64708],[31.11896,60.64635],[31.11927,60.64516],[31.13003,60.63854],[31.13764,60.63207],[31.13999,60.62924],[31.14474,60.6201],[31.15104,60.6156],[31.15521,60.61422],[31.15729,60.61415],[31.1613,60.61511],[31.16469,60.61719],[31.16615,60.61865],[31.16927,60.62396]]]}},{"type":"Feature","properties":{"depth_m":50,"name":"Изобата 50 м (модель GLDB, ~1 км)","source":"GLDBv2 Global Lake Database v2 (Kourzeneva & Choulga; FLake, IGB Berlin) — GlobalLakeDepth.dat, 30″; Ladoga local depths digitised from maps (Hydrometcentre St Petersburg)","source_url":"http://www.flake.igb-berlin.de/site/external-dataset","license":"CC BY (Choulga et al. 2019, Adv. Sci. Res. 16:57, data availability); cite Kourzeneva et al. 2012 Tellus A 64:15640 and Choulga et al. 2014 Tellus A 66:21295","attribution":"Изобаты: GLDB v2 (Kourzeneva, Choulga), CC BY","accuracy_note":"Грубая модель: сетка 30″ (~0.46×0.93 км), сглажено; положение изобат ±0.5–1 км, у берега и на банках не точна. Не для навигации.","derived_by":"ladoga-fishing-map research agent 'depth' (skimage find_contours + Chaikin smoothing), 2026-09-22"},"geometry":{"type":"MultiLineString","coordinates":[[[31.98303,60.8],[31.98344,60.79688],[31.98653,60.78759],[31.99531,60.76935],[32.02058,60.73385],[32.02792,60.72752],[32.04077,60.72018],[32.05147,60.71321],[32.0536,60.71134],[32.05677,60.7066],[32.05942,60.70104],[32.0617,60.69375],[32.06302,60.6875],[32.06276,60.68229],[32.06133,60.67604],[32.05859,60.67005],[32.05423,60.66406],[32.03646,60.64635],[32.0299,60.64174],[32.02396,60.63884],[32.01771,60.63693],[32.00104,60.63393],[31.98437,60.63229],[31.95729,60.63095],[31.94687,60.62931],[31.93021,60.62539],[31.92187,60.62514],[31.91198,60.62744],[31.89687,60.63312],[31.88854,60.63549],[31.88021,60.63677],[31.86562,60.63732],[31.85312,60.63865],[31.81562,60.64745],[31.79687,60.65072],[31.78229,60.652],[31.74896,60.65139],[31.72187,60.65223],[31.7099,60.65391],[31.69687,60.65647],[31.68854,60.65857],[31.67292,60.66345],[31.66146,60.66604],[31.65312,60.66686],[31.64271,60.66624],[31.61562,60.66163],[31.61146,60.6599],[31.60729,60.65677],[31.60573,60.65495],[31.60417,60.65104],[31.60417,60.64896],[31.60323,60.64479],[31.60104,60.64062],[31.59792,60.63672],[31.59271,60.63411],[31.57812,60.62865],[31.56198,60.62141],[31.5451,60.60719],[31.53924,60.60382],[31.52205,60.5991],[31.49635,60.58715],[31.45937,60.57485],[31.45104,60.5734],[31.42187,60.5723],[31.40104,60.56859],[31.38854,60.56744],[31.37604,60.56823],[31.35729,60.57036],[31.33021,60.57548],[31.32024,60.5777],[31.31109,60.5804],[31.29896,60.5853],[31.28833,60.5907],[31.26921,60.60342],[31.26146,60.61066],[31.25764,60.61538],[31.25392,60.62059],[31.24919,60.63021],[31.24606,60.63854],[31.24149,60.65313],[31.23763,60.66259],[31.23021,60.67041],[31.22943,60.67111],[31.22396,60.67328],[31.21173,60.67689],[31.20472,60.67953],[31.19468,60.6861],[31.18947,60.69022],[31.18627,60.69185],[31.17812,60.69319],[31.16562,60.69284],[31.16146,60.69332],[31.15312,60.69634],[31.13542,60.70415],[31.12982,60.7059],[31.12396,60.70663],[31.11819,60.70585],[31.11298,60.70383],[31.10036,60.69633],[31.09731,60.69497],[31.07396,60.68993],[31.0686,60.6881],[31.06287,60.68486],[31.05729,60.68371],[31.05327,60.68418],[31.04062,60.69017],[31.02559,60.69497],[31.02246,60.6974],[31.02015,60.70156],[31.01947,60.70371],[31.0197,60.70612],[31.02329,60.71387],[31.02499,60.71979],[31.02498,60.72396],[31.02279,60.73125],[31.01963,60.73646],[31.0149,60.74056],[31.00977,60.74369],[30.99896,60.74837],[30.99696,60.74876],[30.99323,60.7482],[30.9874,60.74487],[30.98081,60.73606],[30.97663,60.72949],[30.97337,60.71771],[30.97134,60.71221],[30.96562,60.70755],[30.96071,60.70471],[30.95358,60.70387],[30.94658,60.7067],[30.93626,60.71209],[30.93368,60.71562],[30.93148,60.71979],[30.9303,60.72396],[30.92939,60.73003],[30.92095,60.73776],[30.91821,60.73229],[30.91362,60.72041],[30.90521,60.71602],[30.9,60.71419]],[[30.92867,60.8],[30.92946,60.79646],[30.93223,60.79063],[30.93519,60.78625],[30.94263,60.77903],[30.95391,60.77056],[30.95937,60.76956],[30.96307,60.76948],[30.96927,60.7715],[30.97493,60.77671],[30.97805,60.78034],[30.98149,60.78704],[30.9853,60.79661],[30.98653,60.8]],[[31.04242,60.8],[31.03883,60.79594],[31.03672,60.79132],[31.03582,60.78813],[31.03547,60.78438],[31.03628,60.77784],[31.03924,60.77384],[31.04352,60.77018],[31.04716,60.76885],[31.05312,60.76767],[31.05729,60.76754],[31.06354,60.76845],[31.06771,60.76975],[31.07396,60.77259],[31.08258,60.7778],[31.08483,60.77984],[31.08836,60.78435],[31.09479,60.78939],[31.09722,60.7904],[31.13437,60.79144],[31.13854,60.79085],[31.14271,60.78906],[31.14427,60.7888],[31.14531,60.78932],[31.14583,60.79063],[31.14569,60.8]],[[32.42549,60.8],[32.42894,60.78672],[32.43078,60.77396],[32.43203,60.75313],[32.43321,60.74688],[32.44109,60.72396],[32.44625,60.70312],[32.4485,60.69687],[32.45061,60.69271],[32.46447,60.67102],[32.46826,60.66146],[32.4698,60.65313],[32.47,60.64271],[32.46894,60.63229],[32.46663,60.62396],[32.46364,60.61799],[32.45966,60.61487],[32.45427,60.61229],[32.4487,60.61441],[32.44512,60.61635],[32.43875,60.62155],[32.41243,60.64744],[32.40584,60.65557],[32.39571,60.67057],[32.3883,60.67973],[32.37178,60.69749],[32.36011,60.71101],[32.35322,60.71745],[32.33638,60.72854],[32.32943,60.73785],[32.32085,60.75781],[32.31786,60.76094],[32.31384,60.7638],[32.30937,60.76476],[32.29479,60.76543],[32.28646,60.76645],[32.27812,60.76846],[32.26562,60.77267],[32.2536,60.77842],[32.22882,60.79556],[32.2217,60.79781],[32.21354,60.79868],[32.20312,60.7981],[32.19271,60.79681],[32.16771,60.79192],[32.15937,60.79126],[32.15312,60.79159],[32.14479,60.79331],[32.12258,60.8]],[[31.16409,60.75729],[31.16225,60.76823],[31.15479,60.78177],[31.15271,60.78385],[31.14774,60.7862],[31.1474,60.78568],[31.15022,60.78021],[31.15067,60.77813],[31.14975,60.76771],[31.15074,60.75729],[31.15218,60.7527],[31.15298,60.75172],[31.15553,60.75067],[31.15937,60.75084],[31.16235,60.75169],[31.16374,60.75305],[31.16409,60.75729]]]}},{"type":"Feature","properties":{"depth_m":70,"name":"Изобата 70 м (модель GLDB, ~1 км)","source":"GLDBv2 Global Lake Database v2 (Kourzeneva & Choulga; FLake, IGB Berlin) — GlobalLakeDepth.dat, 30″; Ladoga local depths digitised from maps (Hydrometcentre St Petersburg)","source_url":"http://www.flake.igb-berlin.de/site/external-dataset","license":"CC BY (Choulga et al. 2019, Adv. Sci. Res. 16:57, data availability); cite Kourzeneva et al. 2012 Tellus A 64:15640 and Choulga et al. 2014 Tellus A 66:21295","attribution":"Изобаты: GLDB v2 (Kourzeneva, Choulga), CC BY","accuracy_note":"Грубая модель: сетка 30″ (~0.46×0.93 км), сглажено; положение изобат ±0.5–1 км, у берега и на банках не точна. Не для навигации.","derived_by":"ladoga-fishing-map research agent 'depth' (skimage find_contours + Chaikin smoothing), 2026-09-22"},"geometry":{"type":"MultiLineString","coordinates":[[[31.46746,60.8],[31.46741,60.79896],[31.46885,60.78021],[31.46854,60.77604],[31.46667,60.76979],[31.46437,60.76562],[31.45937,60.76031],[31.44616,60.75177],[31.43789,60.74525],[31.42448,60.72878],[31.4138,60.72014],[31.40651,60.71345],[31.40482,60.71094],[31.40281,60.69896],[31.40169,60.69479],[31.39865,60.68893],[31.39661,60.6862],[31.38646,60.67869],[31.3638,60.66597],[31.34509,60.65445],[31.33437,60.65001],[31.32812,60.64852],[31.32187,60.64881],[31.31771,60.6502],[31.31042,60.65421],[31.29697,60.66424],[31.28973,60.67254],[31.27879,60.68726],[31.27014,60.69514],[31.26319,60.69962],[31.25937,60.70118],[31.25312,60.70243],[31.23229,60.7018],[31.2278,60.70265],[31.22689,60.70326],[31.2257,60.70558],[31.22535,60.70937],[31.226,60.71354],[31.2277,60.71771],[31.23048,60.72109],[31.23924,60.72656],[31.25312,60.73906],[31.26146,60.74526],[31.26562,60.74896],[31.27148,60.75521],[31.28707,60.77493],[31.29323,60.7801],[31.29557,60.7813],[31.30312,60.78328],[31.30729,60.7849],[31.32812,60.79516],[31.33229,60.79646],[31.34896,60.8]],[[31.89661,60.8],[31.89893,60.79643],[31.90528,60.78822],[31.91467,60.78014],[31.92951,60.77098],[31.93899,60.76319],[31.94211,60.7599],[31.94691,60.75391],[31.95239,60.74063],[31.95288,60.73438],[31.95181,60.73035],[31.94962,60.72689],[31.94297,60.72114],[31.93437,60.71783],[31.92187,60.71422],[31.91146,60.71241],[31.90104,60.7113],[31.88646,60.70955],[31.86354,60.70474],[31.85521,60.70478],[31.84896,60.70673],[31.83005,60.71533],[31.80696,60.72094],[31.79896,60.72399],[31.78885,60.72911],[31.77837,60.73713],[31.76994,60.74622],[31.76432,60.75432],[31.76076,60.76071],[31.75842,60.76771],[31.7569,60.77813],[31.75748,60.78646],[31.7601,60.79625],[31.76214,60.8]]]}}]}